{
"type": "FeatureCollection",
"name": "madurai_district_boundary",
"crs": { "type": "name", "properties": { "name": "urn:ogc:def:crs:OGC:1.3:CRS84" } },
"features": [
{ "type": "Feature", "properties": { }, "geometry": { "type": "Polygon", "coordinates": [ [ [ 78.064498902000139, 9.737251281000113 ], [ 78.055191041000171, 9.741080285000066 ], [ 78.045951843000068, 9.729731561000051 ], [ 78.057510377000199, 9.719840050000073 ], [ 78.052787781000063, 9.712791442000025 ], [ 78.056976319000057, 9.707990647000088 ], [ 78.060287475000109, 9.698721886000158 ], [ 78.063446045000148, 9.694389343000012 ], [ 78.062576294000053, 9.684150695000028 ], [ 78.067787171000191, 9.681031227 ], [ 78.068572998000093, 9.676361085000167 ], [ 78.071746827000027, 9.670941353999979 ], [ 78.071380615000123, 9.664211273000092 ], [ 78.066650390000177, 9.663251876000061 ], [ 78.064163209000185, 9.660101891000124 ], [ 78.066261292000149, 9.656120300999987 ], [ 78.06607055600017, 9.650941849000162 ], [ 78.06098175000011, 9.648610115000167 ], [ 78.048606872000107, 9.647850991000041 ], [ 78.043350219000104, 9.64874267600004 ], [ 78.044403076000094, 9.659381867000036 ], [ 78.023506164000139, 9.665270805000034 ], [ 78.014656067000033, 9.647880555000029 ], [ 78.008750915000121, 9.647270202000016 ], [ 78.00531005900018, 9.640379906000135 ], [ 78.000328065000076, 9.633961678000048 ], [ 77.997917175000055, 9.628160477000108 ], [ 77.994155883000076, 9.628059387000121 ], [ 77.988456726000038, 9.630670547000136 ], [ 77.988693237000177, 9.637690545000112 ], [ 77.985870360000092, 9.637929917 ], [ 77.982482911000034, 9.635169983000083 ], [ 77.978828430000135, 9.631070138000098 ], [ 77.975166321000074, 9.631752015000075 ], [ 77.97300720200019, 9.62942028100008 ], [ 77.971488953000062, 9.625432014000069 ], [ 77.966781616000048, 9.624079705000156 ], [ 77.963760376000039, 9.621321678000129 ], [ 77.957839966000108, 9.619389535000039 ], [ 77.949676514000032, 9.623570442000016 ], [ 77.949333191000107, 9.626790047000043 ], [ 77.94671630800002, 9.627711295999973 ], [ 77.94687652500005, 9.634269715000073 ], [ 77.936462402000188, 9.637281419000033 ], [ 77.935470581000118, 9.635479927000176 ], [ 77.932991027000128, 9.635051727000075 ], [ 77.931808472000057, 9.636680603000059 ], [ 77.918052671999988, 9.637450219000129 ], [ 77.91433715800008, 9.635459901000104 ], [ 77.908187865000116, 9.635430337000173 ], [ 77.905097960000148, 9.626521110000112 ], [ 77.89636993400012, 9.626381873000014 ], [ 77.887947082000039, 9.620330810000041 ], [ 77.88564300600018, 9.617869377000034 ], [ 77.88478088300019, 9.61394024000009 ], [ 77.881996155000138, 9.614919663000023 ], [ 77.877243042000089, 9.618740082000045 ], [ 77.875183106000179, 9.624499322000133 ], [ 77.874176026000157, 9.631150246000118 ], [ 77.851539613000114, 9.636860847000037 ], [ 77.830406190000076, 9.639651300000082 ], [ 77.826553345000093, 9.624920845000133 ], [ 77.81645202600015, 9.625050546000125 ], [ 77.801208497000175, 9.630719183999986 ], [ 77.794448853000119, 9.63000106800007 ], [ 77.790061950000108, 9.63148021700016 ], [ 77.779808044000106, 9.638001443000064 ], [ 77.775848389000146, 9.628200531000061 ], [ 77.774047852000081, 9.628520013000013 ], [ 77.759185790000174, 9.63000106800007 ], [ 77.753097535000109, 9.640220642000088 ], [ 77.749313355000197, 9.650430680000056 ], [ 77.753608704000044, 9.651730538000152 ], [ 77.753448486000082, 9.654541015000063 ], [ 77.751052857000047, 9.65592193700013 ], [ 77.751556396000069, 9.662319184000125 ], [ 77.749420165000117, 9.665379525000162 ], [ 77.748298645000091, 9.669489861000045 ], [ 77.74639129600007, 9.670188904000099 ], [ 77.746017456000061, 9.673299789000168 ], [ 77.744537354000158, 9.673271180000029 ], [ 77.743629456000178, 9.671410561000187 ], [ 77.718040467000094, 9.68163108900012 ], [ 77.712837219000164, 9.681290626000077 ], [ 77.708602905000134, 9.682931899999971 ], [ 77.69439697200005, 9.69355011000016 ], [ 77.69541931200007, 9.68575954500011 ], [ 77.692077636000135, 9.68029022200011 ], [ 77.686126709000064, 9.680329323000024 ], [ 77.684013368000137, 9.682420731000093 ], [ 77.684989928999983, 9.687899591000075 ], [ 77.678886412999987, 9.68668079400004 ], [ 77.679389954000044, 9.682090759000118 ], [ 77.668975831000125, 9.674109459000022 ], [ 77.668373108000083, 9.667661667000118 ], [ 77.664916993000077, 9.666780471000038 ], [ 77.662452698000152, 9.671100616000047 ], [ 77.652732849000188, 9.6666412350001 ], [ 77.644920349000188, 9.671190263000085 ], [ 77.643348694999986, 9.669040680000137 ], [ 77.641555786000083, 9.668760299000098 ], [ 77.640312195000149, 9.670811652999987 ], [ 77.635665895000102, 9.671751022000024 ], [ 77.63514709500015, 9.673860550000143 ], [ 77.636878967000087, 9.6771698 ], [ 77.635078430000078, 9.680639268 ], [ 77.634536744000172, 9.684251785000072 ], [ 77.633270263000099, 9.687439919000042 ], [ 77.631546021000077, 9.686429977000159 ], [ 77.630043029000092, 9.687211991000027 ], [ 77.631050111000093, 9.690960884000162 ], [ 77.629325867000091, 9.69075202900018 ], [ 77.627738953000062, 9.69532108300001 ], [ 77.620941162000065, 9.692021369000031 ], [ 77.616821288999972, 9.692729950000114 ], [ 77.614196776000199, 9.696529388000101 ], [ 77.608230591999984, 9.691570283000033 ], [ 77.606742859000121, 9.689360619000183 ], [ 77.602516174000073, 9.688579560000107 ], [ 77.600646974000142, 9.684571267000024 ], [ 77.5948791510001, 9.687899591000075 ], [ 77.587089539000033, 9.681470872000091 ], [ 77.586738587000127, 9.676800728000046 ], [ 77.583358764000195, 9.675809860000129 ], [ 77.583419799000183, 9.674150467000061 ], [ 77.577285767000149, 9.670111657000177 ], [ 77.570190429000149, 9.656110764000175 ], [ 77.562858581000171, 9.658480645000054 ], [ 77.561203003000116, 9.654590607000102 ], [ 77.559226990000127, 9.652371406000043 ], [ 77.552520751000088, 9.650441170000022 ], [ 77.547271728000055, 9.647399903 ], [ 77.541625976000091, 9.638939857000082 ], [ 77.534721375000174, 9.634831428999973 ], [ 77.528282165000121, 9.636009217000094 ], [ 77.528182983000079, 9.638710023000101 ], [ 77.530662537000069, 9.643651010000099 ], [ 77.531051635000097, 9.647170067 ], [ 77.527770996000186, 9.649971008000023 ], [ 77.521690369000055, 9.647781373000157 ], [ 77.519699096000011, 9.64359188200018 ], [ 77.517021180000143, 9.64244079600013 ], [ 77.51116943400001, 9.638180733000183 ], [ 77.510200501000043, 9.634480477000068 ], [ 77.504028321000078, 9.628540039000086 ], [ 77.503318786000079, 9.623931886000094 ], [ 77.504470825000112, 9.621249200000022 ], [ 77.500076294000053, 9.602418900000032 ], [ 77.498298645000091, 9.600650787000177 ], [ 77.495033265000131, 9.592869758000063 ], [ 77.491470338000113, 9.592399598000043 ], [ 77.489196777000188, 9.589832306000062 ], [ 77.483146668000074, 9.578599929000177 ], [ 77.48400878800004, 9.57304954600005 ], [ 77.482460023000044, 9.566981315000021 ], [ 77.477691650000111, 9.562561990000063 ], [ 77.475250244999984, 9.561650277000183 ], [ 77.471069337000131, 9.561791421000123 ], [ 77.468986512000185, 9.560189247000096 ], [ 77.468536376000031, 9.55672931700019 ], [ 77.465538025000058, 9.553510666000022 ], [ 77.461982726000144, 9.553079606000097 ], [ 77.459129333000192, 9.560099602000037 ], [ 77.448013306000178, 9.569339753000122 ], [ 77.457168578000051, 9.582871437000108 ], [ 77.470565796000074, 9.596780776000173 ], [ 77.471328736000146, 9.604040146000045 ], [ 77.487091065000072, 9.622659683999984 ], [ 77.489616394, 9.626740455000061 ], [ 77.489402771000186, 9.629320146000055 ], [ 77.4872894290001, 9.633060456000067 ], [ 77.487327576000155, 9.636631013 ], [ 77.488777161000144, 9.639769554999987 ], [ 77.495231628999989, 9.642381668000041 ], [ 77.503585816000168, 9.649111748000166 ], [ 77.506759644000056, 9.649291991999974 ], [ 77.509658812999987, 9.650959970000144 ], [ 77.514137268000127, 9.660090447000016 ], [ 77.520477295000035, 9.666369439000164 ], [ 77.525650025000118, 9.683499337000114 ], [ 77.527816773000154, 9.682621956000105 ], [ 77.529800414000022, 9.685020446000124 ], [ 77.530929565000122, 9.68832016000016 ], [ 77.529792786000144, 9.694451333000188 ], [ 77.537010192000082, 9.707941055000049 ], [ 77.538131714000144, 9.711640358000182 ], [ 77.553306580000196, 9.738010407000047 ], [ 77.563598633000083, 9.745869637 ], [ 77.584121704000097, 9.766770364000138 ], [ 77.591239928000164, 9.784049988999982 ], [ 77.596542359000068, 9.789510727000106 ], [ 77.602401734000182, 9.796991348000063 ], [ 77.608596801000033, 9.812529564000158 ], [ 77.610153199000194, 9.822561264000115 ], [ 77.611763, 9.825928689000079 ], [ 77.609527588000049, 9.827549935000093 ], [ 77.604118347, 9.826059342000178 ], [ 77.602355957000043, 9.82769107900009 ], [ 77.603546142000198, 9.845422745000121 ], [ 77.606567384000073, 9.853361129 ], [ 77.620681763, 9.86250972800002 ], [ 77.633659363000163, 9.880661011000029 ], [ 77.633552551000037, 9.891410827000016 ], [ 77.634651185000166, 9.894939423000153 ], [ 77.638229370000033, 9.898980142000084 ], [ 77.639480591000051, 9.904409409000152 ], [ 77.64147186200006, 9.908420562000117 ], [ 77.650543212000116, 9.904931068000053 ], [ 77.652076721000071, 9.901562691000152 ], [ 77.660156250000057, 9.914681435000091 ], [ 77.664672852000194, 9.924201011000093 ], [ 77.658988953000176, 9.94450187700005 ], [ 77.658515930000021, 9.94932174600018 ], [ 77.659851073000141, 9.951642037 ], [ 77.667106628000113, 9.958760261000123 ], [ 77.677322387000117, 9.957539558000121 ], [ 77.678268433000198, 9.967120170000044 ], [ 77.679946900000118, 9.972161294000045 ], [ 77.680656433000081, 9.97758960800013 ], [ 77.681167602000187, 9.990091324000161 ], [ 77.681297303000179, 9.990091324000161 ], [ 77.683258057000046, 9.996180534000189 ], [ 77.682418823000091, 10.002670288000161 ], [ 77.685989380000194, 10.002890586000092 ], [ 77.686676025000054, 10.005670549000172 ], [ 77.691017151000096, 10.006568909000066 ], [ 77.695213318000071, 10.009981156000038 ], [ 77.705307006000169, 10.007642745999988 ], [ 77.707359314000144, 10.012070656000105 ], [ 77.726356507000162, 10.023891450000065 ], [ 77.734306335000156, 10.03369999 ], [ 77.737800597999978, 10.035690308000028 ], [ 77.743942261000029, 10.03470134700018 ], [ 77.746696473000043, 10.035969734000048 ], [ 77.743942261000029, 10.039229394000131 ], [ 77.748268127000188, 10.045049667000058 ], [ 77.759918212, 10.040841102000059 ], [ 77.766258239000138, 10.039329529000156 ], [ 77.776496887000121, 10.044839859000092 ], [ 77.779899596, 10.047638893000055 ], [ 77.781799317000093, 10.050930024000138 ], [ 77.786552429999972, 10.053881645 ], [ 77.79241943300002, 10.055859566000152 ], [ 77.798683166000046, 10.056880950999982 ], [ 77.807540894, 10.056111335000082 ], [ 77.814201356000069, 10.059930801000121 ], [ 77.823066711000081, 10.062021257000083 ], [ 77.838668823000091, 10.064561844000025 ], [ 77.844772337999984, 10.064261437000141 ], [ 77.850616455000136, 10.06252193500012 ], [ 77.855590820000032, 10.05765056700011 ], [ 77.860557556000117, 10.048361779000174 ], [ 77.866416930000128, 10.054009439000083 ], [ 77.869270324000183, 10.055611611000131 ], [ 77.873222351000038, 10.056269645000043 ], [ 77.875946044000045, 10.059540748000074 ], [ 77.879257202000133, 10.060958862000177 ], [ 77.88520813000008, 10.058251380000172 ], [ 77.889656067000146, 10.058271409000099 ], [ 77.891876221000189, 10.063221931000101 ], [ 77.895286560000159, 10.064809800000148 ], [ 77.904136658000198, 10.063420295000185 ], [ 77.906280518000131, 10.066070557000103 ], [ 77.904212951000034, 10.069391250000137 ], [ 77.903686524000079, 10.072170258000028 ], [ 77.922691345000032, 10.075289726 ], [ 77.923759460000042, 10.079079629000148 ], [ 77.931617738000114, 10.079551696000067 ], [ 77.928588866000098, 10.08350086300004 ], [ 77.921897888000046, 10.084500313000149 ], [ 77.921051025000054, 10.087409974000082 ], [ 77.920959473000096, 10.095890999000062 ], [ 77.925857543000177, 10.09867095900006 ], [ 77.926506043000188, 10.10438060700011 ], [ 77.929786682000099, 10.106248856999969 ], [ 77.932502747000058, 10.109649659000183 ], [ 77.934738159000062, 10.116482734000044 ], [ 77.938499450000165, 10.117620467000108 ], [ 77.939071655000191, 10.121320725000032 ], [ 77.934562683000138, 10.121191979000059 ], [ 77.931648254000152, 10.122570039000038 ], [ 77.936706544000117, 10.129321098000048 ], [ 77.950698852000016, 10.121761321000065 ], [ 77.953666686000133, 10.120670318000123 ], [ 77.958572388000107, 10.120241165000095 ], [ 77.962661743000183, 10.122500421000154 ], [ 77.972640990000116, 10.131469725999978 ], [ 77.977752684999984, 10.140601159000141 ], [ 77.983940125000174, 10.148031235000133 ], [ 78.002876282000159, 10.148579598000083 ], [ 78.003807068000071, 10.153731347000132 ], [ 78.008598328000176, 10.159481049000135 ], [ 78.014282226000091, 10.168210030000012 ], [ 78.018768311000088, 10.166911125000127 ], [ 78.038566589000084, 10.168060303000175 ], [ 78.055709838000155, 10.167348861999983 ], [ 78.056678773000158, 10.17147159600006 ], [ 78.091148376000149, 10.172439576000045 ], [ 78.099876405000145, 10.173851014000093 ], [ 78.105155945000149, 10.177591325000037 ], [ 78.108810426000105, 10.175609589000032 ], [ 78.113708496000186, 10.175279617000115 ], [ 78.125099182000099, 10.171051979000083 ], [ 78.129737854000041, 10.167229652000117 ], [ 78.133277893000127, 10.163070679000157 ], [ 78.136497498000153, 10.153479577000098 ], [ 78.141090393000127, 10.143268586000147 ], [ 78.142242432000103, 10.136960983000051 ], [ 78.141693115000066, 10.131980895000083 ], [ 78.146957398000154, 10.128781318000165 ], [ 78.148338318000185, 10.113750458000084 ], [ 78.144058228000063, 10.102840423999965 ], [ 78.143829345000086, 10.099169732 ], [ 78.145996094, 10.094780922000155 ], [ 78.148826599000188, 10.091161728000031 ], [ 78.152481080000143, 10.089921952000111 ], [ 78.153762817000029, 10.086581230000093 ], [ 78.152999877000184, 10.083100320000028 ], [ 78.15361023000014, 10.080570221000016 ], [ 78.162002564000147, 10.080720901000063 ], [ 78.175491333000195, 10.072402001000114 ], [ 78.187301636000143, 10.067139625999971 ], [ 78.184921265000071, 10.058161736000045 ], [ 78.195236206000118, 10.052910805000124 ], [ 78.199157715000126, 10.063541413000053 ], [ 78.209442138999975, 10.066711426000097 ], [ 78.223426819000167, 10.067050935 ], [ 78.230583190000118, 10.072720528000048 ], [ 78.242828369000165, 10.073810577000131 ], [ 78.245033264000085, 10.08129978300019 ], [ 78.244712829000093, 10.087781906000146 ], [ 78.247131348000096, 10.093608857000049 ], [ 78.249397279000107, 10.096920967000017 ], [ 78.253562927000132, 10.097331047000011 ], [ 78.255348205000075, 10.102768899000182 ], [ 78.25679779100011, 10.109519958000021 ], [ 78.255065917000138, 10.11475086300004 ], [ 78.256080627000074, 10.118302346000121 ], [ 78.263877870000158, 10.118511199000125 ], [ 78.264457702000186, 10.124700545999985 ], [ 78.267295837000063, 10.136441231000049 ], [ 78.26603698800011, 10.147448540000141 ], [ 78.264480591000051, 10.152151108 ], [ 78.26020813000008, 10.152721405000023 ], [ 78.242652893000184, 10.148511887000097 ], [ 78.239295960000163, 10.151021005000018 ], [ 78.24089050300006, 10.154720306000172 ], [ 78.244956971000079, 10.157609939000054 ], [ 78.249290466000048, 10.163421631000062 ], [ 78.262008667000146, 10.170471191000161 ], [ 78.283302306999985, 10.18404102400018 ], [ 78.299026489000198, 10.196621894000032 ], [ 78.304107665000174, 10.201620103000096 ], [ 78.312156677000189, 10.213932038000166 ], [ 78.312248229000147, 10.217820168000173 ], [ 78.310401917000149, 10.222769736999965 ], [ 78.310676575000116, 10.226910591000092 ], [ 78.31285095200019, 10.22929954500006 ], [ 78.314796448000038, 10.233000756000138 ], [ 78.314476013000046, 10.237421036000114 ], [ 78.31125640800002, 10.242609979 ], [ 78.310668945000032, 10.247778894000078 ], [ 78.313430787000073, 10.251481057000035 ], [ 78.313766480000083, 10.256520271000056 ], [ 78.312057495000147, 10.259460449000187 ], [ 78.312568664000082, 10.263240814000028 ], [ 78.311386109000182, 10.265721322000104 ], [ 78.311668397000119, 10.27248096400001 ], [ 78.314491272000168, 10.274980546000108 ], [ 78.318649292000146, 10.276030540000079 ], [ 78.319046020000087, 10.279060365000078 ], [ 78.315727234000121, 10.28287982900008 ], [ 78.317543030000081, 10.28803062500009 ], [ 78.348251343000072, 10.280920029000072 ], [ 78.351776124000139, 10.286220550000166 ], [ 78.356719970000086, 10.286860465000075 ], [ 78.355056762000174, 10.295529366000153 ], [ 78.363960267000095, 10.297050475000162 ], [ 78.37021636999998, 10.290291786000068 ], [ 78.373291017000099, 10.29043102300011 ], [ 78.372970582000164, 10.283382417000098 ], [ 78.370117188000165, 10.280819892000068 ], [ 78.370277405000138, 10.278702736000014 ], [ 78.368698119000044, 10.277909278000095 ], [ 78.365776062000123, 10.280639648999966 ], [ 78.364448547000165, 10.279161454000132 ], [ 78.365051270000038, 10.27652072800015 ], [ 78.369857788000161, 10.272400855000058 ], [ 78.368766785000048, 10.262661934000107 ], [ 78.366088866999974, 10.261141777000034 ], [ 78.369606019000059, 10.259610176000024 ], [ 78.369621277000078, 10.257611275000102 ], [ 78.371368409000183, 10.257189750000123 ], [ 78.374740600000052, 10.25945091300008 ], [ 78.379951477000191, 10.25974941200019 ], [ 78.387550355000087, 10.263181686000109 ], [ 78.391326903999982, 10.259011268000052 ], [ 78.398040772000058, 10.261079789 ], [ 78.403266907000159, 10.257411003000072 ], [ 78.406959534000066, 10.256171227000152 ], [ 78.406639099000131, 10.24464130400014 ], [ 78.392280579000101, 10.241801261000091 ], [ 78.388191223000149, 10.236511231000065 ], [ 78.37925720200019, 10.234010696000041 ], [ 78.378189086000077, 10.229551315000094 ], [ 78.378082276000157, 10.222441674000095 ], [ 78.381736755000077, 10.213471414000082 ], [ 78.385932922000109, 10.211701393000055 ], [ 78.390823364000084, 10.208330155 ], [ 78.39581298700017, 10.200429917000065 ], [ 78.394912720000036, 10.196371080000063 ], [ 78.39229583700012, 10.191231729000151 ], [ 78.388732910000158, 10.186901093000131 ], [ 78.386466979000147, 10.175451279000072 ], [ 78.379249572999981, 10.16566181100012 ], [ 78.379806519000056, 10.159241677000068 ], [ 78.382019043000184, 10.155891418000067 ], [ 78.383209229000045, 10.15250015200013 ], [ 78.397872924000183, 10.146911622000118 ], [ 78.397300720000089, 10.143879890000107 ], [ 78.392616272000112, 10.138422012000035 ], [ 78.389205933000085, 10.131570816000021 ], [ 78.386833191000051, 10.124770164999973 ], [ 78.393432618000134, 10.122469901999978 ], [ 78.398971558000142, 10.121720314000129 ], [ 78.399627686000088, 10.118680000000154 ], [ 78.401786805000086, 10.116539956000167 ], [ 78.404472351000095, 10.118700028000035 ], [ 78.409912110000107, 10.118470192000188 ], [ 78.409576417000153, 10.111481667000078 ], [ 78.412628173000087, 10.110248566999985 ], [ 78.415451050000115, 10.113658903999976 ], [ 78.416252135000036, 10.116689681000025 ], [ 78.415939330000185, 10.120700837000072 ], [ 78.416763306000178, 10.122250557000086 ], [ 78.422889709000174, 10.117830277000053 ], [ 78.425758363000057, 10.11718273200006 ], [ 78.43499755800002, 10.106591225000102 ], [ 78.43807220500014, 10.106912613000191 ], [ 78.442802429000039, 10.111982346 ], [ 78.445922851000091, 10.110900880000031 ], [ 78.448478698000088, 10.10789966699997 ], [ 78.452896117000137, 10.105680465000034 ], [ 78.454429626000092, 10.102740288000064 ], [ 78.453926086000138, 10.099190711000062 ], [ 78.452148437000062, 10.095359802000075 ], [ 78.449050903999989, 10.092350959999976 ], [ 78.440452576000041, 10.088021278000042 ], [ 78.440856933000191, 10.083259582000039 ], [ 78.44242095900006, 10.078779220000058 ], [ 78.440612794000117, 10.069671631000119 ], [ 78.445320130000084, 10.065439225000091 ], [ 78.443916321000188, 10.057312011000135 ], [ 78.438171387000182, 10.057879448000108 ], [ 78.434272767000039, 10.047950745000094 ], [ 78.427452087, 10.046641351000119 ], [ 78.421707153000057, 10.046401978000119 ], [ 78.416381836000028, 10.044618605999972 ], [ 78.411788941000054, 10.039911271000165 ], [ 78.412246705000143, 10.032681465000053 ], [ 78.414230348000046, 10.030131339999969 ], [ 78.414932251000096, 10.024400711000055 ], [ 78.423057556000117, 10.022771835000071 ], [ 78.428871154000092, 10.020540238000081 ], [ 78.43254852299998, 10.011672020000162 ], [ 78.44016265800019, 10.004381181000042 ], [ 78.441459656, 10.000981331000105 ], [ 78.444602966000048, 9.998258591000081 ], [ 78.441566466000154, 9.990270615000156 ], [ 78.441711426000097, 9.988151550000055 ], [ 78.440612794000117, 9.979150771000036 ], [ 78.433563231000107, 9.977971078000053 ], [ 78.432846070000039, 9.974761963 ], [ 78.437843322000106, 9.969490051000093 ], [ 78.440528870000094, 9.955559731000164 ], [ 78.42112731900005, 9.950080871000182 ], [ 78.376838683000187, 9.940581321000025 ], [ 78.367767333000131, 9.94258022300005 ], [ 78.360137940000129, 9.950558664000027 ], [ 78.356628418000184, 9.94597244400012 ], [ 78.355026246000136, 9.938039780000167 ], [ 78.356132508000144, 9.929638863000037 ], [ 78.355751037000118, 9.92059993700019 ], [ 78.345451355000023, 9.921751022000137 ], [ 78.338935852000191, 9.926211358000046 ], [ 78.335533141999974, 9.924500465000165 ], [ 78.330162048000034, 9.925730704999978 ], [ 78.322776795000152, 9.923362732000101 ], [ 78.317565918000184, 9.918890953000187 ], [ 78.309455871000182, 9.915829659000053 ], [ 78.302032470000142, 9.911140442000089 ], [ 78.296928406000063, 9.88729095400015 ], [ 78.299270631000184, 9.879860878000159 ], [ 78.300598145000038, 9.870420456000147 ], [ 78.298271179000039, 9.867671966999978 ], [ 78.298072815000182, 9.86185073900009 ], [ 78.296669006000116, 9.858979224999985 ], [ 78.29580688599998, 9.853219985000067 ], [ 78.281806945000085, 9.849040032000175 ], [ 78.276329041000167, 9.851260186 ], [ 78.271621705000086, 9.857381820000057 ], [ 78.264450074000081, 9.85707187600002 ], [ 78.261108398000147, 9.858639717000131 ], [ 78.258041381000169, 9.856640816000038 ], [ 78.236099243000069, 9.860590935000118 ], [ 78.247467041000107, 9.845120430000065 ], [ 78.251235962000067, 9.836820602000046 ], [ 78.24611663800016, 9.83471107500003 ], [ 78.242309569000042, 9.822251319000088 ], [ 78.235206604000041, 9.823140145000139 ], [ 78.228942870000139, 9.827322007000078 ], [ 78.22265625100016, 9.834481240000116 ], [ 78.230186463000052, 9.846581459000049 ], [ 78.218467712000063, 9.849920273000066 ], [ 78.212989808000145, 9.85247039800015 ], [ 78.208999633000133, 9.849499703000106 ], [ 78.206459044000155, 9.852680207 ], [ 78.193962096000178, 9.860271453000166 ], [ 78.1865081790001, 9.863120079000112 ], [ 78.183326720000025, 9.86077976200005 ], [ 78.181800840999983, 9.857440947999976 ], [ 78.173271178999983, 9.861399651000056 ], [ 78.170066834000181, 9.858542441999987 ], [ 78.166816712000184, 9.858429909000051 ], [ 78.162826537000171, 9.855171204000158 ], [ 78.159149170000092, 9.859622002000151 ], [ 78.155311585000106, 9.86194038400015 ], [ 78.149650575000123, 9.863521575000163 ], [ 78.144042969000168, 9.863600731000133 ], [ 78.142120362000128, 9.860271453000166 ], [ 78.138237000000174, 9.861499786000081 ], [ 78.135917664000146, 9.857600213000126 ], [ 78.135192872, 9.852990152000132 ], [ 78.136558534000017, 9.845730782000089 ], [ 78.136749268000187, 9.838950157000113 ], [ 78.12296295200008, 9.844010353000101 ], [ 78.11949157700019, 9.843510628000104 ], [ 78.116897583000139, 9.841739655000026 ], [ 78.115127563999977, 9.839040756000088 ], [ 78.109489440000118, 9.842748642000117 ], [ 78.108886719000111, 9.839699746000065 ], [ 78.110458373000085, 9.83588886300015 ], [ 78.110069275000058, 9.831700324000053 ], [ 78.114456176000033, 9.826620101000117 ], [ 78.116317748000085, 9.820111276000034 ], [ 78.11489868100017, 9.801469803000145 ], [ 78.122222900000168, 9.799310684000147 ], [ 78.126686096000128, 9.801360130000035 ], [ 78.137573241000041, 9.809082032 ], [ 78.140388488000042, 9.815459251000163 ], [ 78.146217346000014, 9.815198898000062 ], [ 78.151840210000046, 9.817481041000121 ], [ 78.155479431000174, 9.816949845000067 ], [ 78.163887024000076, 9.810231208000062 ], [ 78.166816712000184, 9.805912018000072 ], [ 78.170776366999974, 9.803071975000023 ], [ 78.171928406000177, 9.799961090000124 ], [ 78.175651551000158, 9.79528045700016 ], [ 78.173171997000168, 9.787181855000142 ], [ 78.169166564000136, 9.78195953300002 ], [ 78.166549682000152, 9.776911737000034 ], [ 78.162498474000131, 9.766171456000166 ], [ 78.161849976000099, 9.761570931000108 ], [ 78.159347534000176, 9.75922107800011 ], [ 78.155487061000088, 9.762290954000093 ], [ 78.148612975999981, 9.760709763000079 ], [ 78.145729066000115, 9.762521745000072 ], [ 78.145942688000048, 9.76935005200005 ], [ 78.153099059, 9.770870209000179 ], [ 78.155349732000161, 9.777541161000045 ], [ 78.153526306000117, 9.786291124000059 ], [ 78.148567199000013, 9.78815078800011 ], [ 78.144088744000101, 9.791619301000139 ], [ 78.139068604000045, 9.793370248000144 ], [ 78.129089356, 9.795079231000045 ], [ 78.125946043999988, 9.794521332000159 ], [ 78.124206543000071, 9.789580345000161 ], [ 78.12433624300013, 9.78509044700013 ], [ 78.128036499000075, 9.782429695000019 ], [ 78.128318787000126, 9.772130013000151 ], [ 78.124496461000092, 9.769440652000128 ], [ 78.122001649000083, 9.764101029000187 ], [ 78.121337891000053, 9.757370949000062 ], [ 78.122673035, 9.749370576000047 ], [ 78.116340637000064, 9.753199578000135 ], [ 78.110832213000151, 9.751380921000191 ], [ 78.110229492000087, 9.758171081000171 ], [ 78.104553222000106, 9.764060020000045 ], [ 78.092041015000177, 9.773612022000123 ], [ 78.08538818300002, 9.771680832000186 ], [ 78.082283020000091, 9.768239975000142 ], [ 78.074966430000075, 9.768100738999976 ], [ 78.073432923000098, 9.765291215000047 ], [ 78.078742982000108, 9.760549545000117 ], [ 78.087013245000037, 9.755160332000173 ], [ 78.086326600000177, 9.749981880000178 ], [ 78.084449767000194, 9.74360942900006 ], [ 78.076087952000137, 9.744219780000037 ], [ 78.067787171000191, 9.74771022800013 ], [ 78.064498902000139, 9.737251281000113 ] ] ] } }
]
}
