{
"type": "FeatureCollection",
"name": "madurai_wells_unique",
"crs": { "type": "name", "properties": { "name": "urn:ogc:def:crs:OGC:1.3:CRS84" } },
"features": [
{ "type": "Feature", "properties": { "Well No": "21038", "Taluk": "Vadipatti", "Village": "Saranthangi", "Latitude_DD": 10.100556, "Longitude_DD": 78.151944, "Total_Samples": 8, "TDS": 578.38, "EC_GEN": 1055.0, "pH_GEN": 7.88, "F": 0.77, "NO2+NO3": 15.75, "HAR_Total": 363.12, "SAR": 1.82, "RSC": 0.01, "Na%": 31.98 }, "geometry": { "type": "Point", "coordinates": [ 78.151944, 10.100556 ] } },
{ "type": "Feature", "properties": { "Well No": "21039", "Taluk": "Usilampatti", "Village": "K.nattarpatti", "Latitude_DD": 9.968889, "Longitude_DD": 77.863611, "Total_Samples": 5, "TDS": 576.6, "EC_GEN": 1096.0, "pH_GEN": 7.66, "F": 1.97, "NO2+NO3": 5.0, "HAR_Total": 413.0, "SAR": 1.47, "RSC": 0.05, "Na%": 25.41 }, "geometry": { "type": "Point", "coordinates": [ 77.863611, 9.968889 ] } },
{ "type": "Feature", "properties": { "Well No": "21040", "Taluk": "Peraiyur", "Village": "T.kallipatti", "Latitude_DD": 9.715833, "Longitude_DD": 77.859444, "Total_Samples": 8, "TDS": 490.75, "EC_GEN": 891.25, "pH_GEN": 8.06, "F": 1.17, "NO2+NO3": 12.25, "HAR_Total": 289.38, "SAR": 1.89, "RSC": 0.03, "Na%": 34.31 }, "geometry": { "type": "Point", "coordinates": [ 77.859444, 9.715833 ] } },
{ "type": "Feature", "properties": { "Well No": "21041", "Taluk": "Peraiyur", "Village": "Sedapatti", "Latitude_DD": 9.826389, "Longitude_DD": 77.8, "Total_Samples": 8, "TDS": 780.38, "EC_GEN": 1408.75, "pH_GEN": 8.18, "F": 1.66, "NO2+NO3": 9.0, "HAR_Total": 337.5, "SAR": 4.03, "RSC": 1.37, "Na%": 51.04 }, "geometry": { "type": "Point", "coordinates": [ 77.8, 9.826389 ] } },
{ "type": "Feature", "properties": { "Well No": "21042", "Taluk": "Peraiyur", "Village": "Saptur", "Latitude_DD": 9.764722, "Longitude_DD": 77.740278, "Total_Samples": 5, "TDS": 634.2, "EC_GEN": 1140.0, "pH_GEN": 7.88, "F": 1.95, "NO2+NO3": 8.4, "HAR_Total": 273.0, "SAR": 3.78, "RSC": 1.69, "Na%": 52.89 }, "geometry": { "type": "Point", "coordinates": [ 77.740278, 9.764722 ] } },
{ "type": "Feature", "properties": { "Well No": "21043", "Taluk": "Usilampatti", "Village": "Pullaneri", "Latitude_DD": 9.9325, "Longitude_DD": 77.946667, "Total_Samples": 3, "TDS": 921.0, "EC_GEN": 1650.0, "pH_GEN": 8.17, "F": 0.41, "NO2+NO3": 12.0, "HAR_Total": 580.0, "SAR": 2.03, "RSC": 0.0, "Na%": 28.93 }, "geometry": { "type": "Point", "coordinates": [ 77.946667, 9.9325 ] } },
{ "type": "Feature", "properties": { "Well No": "21044", "Taluk": "Usilampatti", "Village": "Sangampatti", "Latitude_DD": 9.948333, "Longitude_DD": 77.898333, "Total_Samples": 3, "TDS": 666.67, "EC_GEN": 1203.33, "pH_GEN": 8.43, "F": 0.97, "NO2+NO3": 11.0, "HAR_Total": 321.67, "SAR": 2.84, "RSC": 0.13, "Na%": 42.17 }, "geometry": { "type": "Point", "coordinates": [ 77.898333, 9.948333 ] } },
{ "type": "Feature", "properties": { "Well No": "21048", "Taluk": "Peraiyur", "Village": "Pappanaickenpatti", "Latitude_DD": 9.820278, "Longitude_DD": 77.711111, "Total_Samples": 3, "TDS": 1176.33, "EC_GEN": 2043.33, "pH_GEN": 8.33, "F": 0.38, "NO2+NO3": 13.0, "HAR_Total": 415.0, "SAR": 4.77, "RSC": 1.67, "Na%": 44.8 }, "geometry": { "type": "Point", "coordinates": [ 77.711111, 9.820278 ] } },
{ "type": "Feature", "properties": { "Well No": "21050", "Taluk": "Peraiyur", "Village": "Mathippanur", "Latitude_DD": 9.795556, "Longitude_DD": 77.8375, "Total_Samples": 3, "TDS": 1115.67, "EC_GEN": 1986.67, "pH_GEN": 7.8, "F": 0.63, "NO2+NO3": 23.0, "HAR_Total": 643.33, "SAR": 2.91, "RSC": 0.0, "Na%": 36.56 }, "geometry": { "type": "Point", "coordinates": [ 77.8375, 9.795556 ] } },
{ "type": "Feature", "properties": { "Well No": "21052", "Taluk": "Peraiyur", "Village": "Muthunayakkapuram", "Latitude_DD": 9.771389, "Longitude_DD": 77.812222, "Total_Samples": 2, "TDS": 499.0, "EC_GEN": 905.0, "pH_GEN": 8.35, "F": 0.94, "NO2+NO3": 7.0, "HAR_Total": 210.0, "SAR": 3.22, "RSC": 1.21, "Na%": 48.69 }, "geometry": { "type": "Point", "coordinates": [ 77.812222, 9.771389 ] } },
{ "type": "Feature", "properties": { "Well No": "21056", "Taluk": "Usilampatti", "Village": "Meikilarpatti", "Latitude_DD": 9.980556, "Longitude_DD": 77.802778, "Total_Samples": 2, "TDS": 820.0, "EC_GEN": 1320.0, "pH_GEN": 8.7, "F": 0.84, "NO2+NO3": 24.0, "HAR_Total": 290.0, "SAR": 2.48, "RSC": 0.75, "Na%": 30.99 }, "geometry": { "type": "Point", "coordinates": [ 77.802778, 9.980556 ] } },
{ "type": "Feature", "properties": { "Well No": "21057", "Taluk": "Usilampatti", "Village": "Panamooppanpatti", "Latitude_DD": 10.137222, "Longitude_DD": 78.3625, "Total_Samples": 2, "TDS": 1386.5, "EC_GEN": 2490.0, "pH_GEN": 8.05, "F": 0.78, "NO2+NO3": 15.0, "HAR_Total": 495.0, "SAR": 6.8, "RSC": 0.05, "Na%": 58.97 }, "geometry": { "type": "Point", "coordinates": [ 78.3625, 10.137222 ] } },
{ "type": "Feature", "properties": { "Well No": "21059", "Taluk": "Vadipatti", "Village": "Kadupatti", "Latitude_DD": 10.022222, "Longitude_DD": 77.92, "Total_Samples": 3, "TDS": 591.33, "EC_GEN": 1053.33, "pH_GEN": 8.07, "F": 1.2, "NO2+NO3": 13.0, "HAR_Total": 336.67, "SAR": 2.32, "RSC": 0.23, "Na%": 37.87 }, "geometry": { "type": "Point", "coordinates": [ 77.92, 10.022222 ] } },
{ "type": "Feature", "properties": { "Well No": "21061", "Taluk": "Vadipatti", "Village": "Thathampatti", "Latitude_DD": 10.022222, "Longitude_DD": 78.015556, "Total_Samples": 3, "TDS": 531.67, "EC_GEN": 940.0, "pH_GEN": 8.13, "F": 0.69, "NO2+NO3": 11.0, "HAR_Total": 286.67, "SAR": 2.12, "RSC": 0.73, "Na%": 36.36 }, "geometry": { "type": "Point", "coordinates": [ 78.015556, 10.022222 ] } },
{ "type": "Feature", "properties": { "Well No": "21062", "Taluk": "Vadipatti", "Village": "Periailandakulam", "Latitude_DD": 10.068333, "Longitude_DD": 78.051389, "Total_Samples": 3, "TDS": 624.33, "EC_GEN": 1123.33, "pH_GEN": 8.33, "F": 0.95, "NO2+NO3": 10.67, "HAR_Total": 261.67, "SAR": 3.5, "RSC": 1.2, "Na%": 40.02 }, "geometry": { "type": "Point", "coordinates": [ 78.051389, 10.068333 ] } },
{ "type": "Feature", "properties": { "Well No": "21065", "Taluk": "Madurai North", "Village": "Mangulam", "Latitude_DD": 10.035833, "Longitude_DD": 78.25, "Total_Samples": 3, "TDS": 826.67, "EC_GEN": 1400.0, "pH_GEN": 8.4, "F": 1.04, "NO2+NO3": 14.67, "HAR_Total": 296.67, "SAR": 4.28, "RSC": 1.08, "Na%": 53.25 }, "geometry": { "type": "Point", "coordinates": [ 78.25, 10.035833 ] } },
{ "type": "Feature", "properties": { "Well No": "21066", "Taluk": "Melur", "Village": "Attukulam", "Latitude_DD": 10.0025, "Longitude_DD": 78.356667, "Total_Samples": 2, "TDS": 1115.5, "EC_GEN": 1970.0, "pH_GEN": 7.35, "F": 0.55, "NO2+NO3": 22.0, "HAR_Total": 620.0, "SAR": 2.93, "RSC": 0.0, "Na%": 36.24 }, "geometry": { "type": "Point", "coordinates": [ 78.356667, 10.0025 ] } },
{ "type": "Feature", "properties": { "Well No": "21068", "Taluk": "Vadipatti", "Village": "Alanganallur", "Latitude_DD": 10.048333, "Longitude_DD": 78.083889, "Total_Samples": 8, "TDS": 934.25, "EC_GEN": 1528.75, "pH_GEN": 7.81, "F": 0.6, "NO2+NO3": 37.0, "HAR_Total": 597.5, "SAR": 1.53, "RSC": 0.0, "Na%": 23.52 }, "geometry": { "type": "Point", "coordinates": [ 78.083889, 10.048333 ] } },
{ "type": "Feature", "properties": { "Well No": "21069", "Taluk": "Vadipatti", "Village": "Maduvarpatti", "Latitude_DD": 10.080278, "Longitude_DD": 78.124722, "Total_Samples": 5, "TDS": 1064.8, "EC_GEN": 1780.0, "pH_GEN": 8.12, "F": 0.52, "NO2+NO3": 36.0, "HAR_Total": 462.0, "SAR": 3.64, "RSC": 0.64, "Na%": 43.53 }, "geometry": { "type": "Point", "coordinates": [ 78.124722, 10.080278 ] } },
{ "type": "Feature", "properties": { "Well No": "21074", "Taluk": "Madurai North", "Village": "Chettikulam", "Latitude_DD": 9.995, "Longitude_DD": 78.146944, "Total_Samples": 3, "TDS": 794.33, "EC_GEN": 1376.67, "pH_GEN": 8.33, "F": 0.74, "NO2+NO3": 25.33, "HAR_Total": 410.0, "SAR": 2.74, "RSC": 0.0, "Na%": 38.52 }, "geometry": { "type": "Point", "coordinates": [ 78.146944, 9.995 ] } },
{ "type": "Feature", "properties": { "Well No": "21075", "Taluk": "Madurai North", "Village": "Chatrapatti", "Latitude_DD": 10.03, "Longitude_DD": 78.15, "Total_Samples": 3, "TDS": 335.67, "EC_GEN": 626.67, "pH_GEN": 8.4, "F": 0.72, "NO2+NO3": 3.67, "HAR_Total": 201.67, "SAR": 1.8, "RSC": 0.18, "Na%": 38.08 }, "geometry": { "type": "Point", "coordinates": [ 78.15, 10.03 ] } },
{ "type": "Feature", "properties": { "Well No": "21076", "Taluk": "Madurai North", "Village": "Vayalur", "Latitude_DD": 10.018333, "Longitude_DD": 78.053889, "Total_Samples": 2, "TDS": 741.5, "EC_GEN": 1370.0, "pH_GEN": 8.1, "F": 0.28, "NO2+NO3": 4.5, "HAR_Total": 317.5, "SAR": 3.9, "RSC": 0.34, "Na%": 51.26 }, "geometry": { "type": "Point", "coordinates": [ 78.053889, 10.018333 ] } },
{ "type": "Feature", "properties": { "Well No": "21078", "Taluk": "Madurai North", "Village": "Kalikappan", "Latitude_DD": 9.939444, "Longitude_DD": 78.193611, "Total_Samples": 3, "TDS": 389.33, "EC_GEN": 716.67, "pH_GEN": 8.13, "F": 0.54, "NO2+NO3": 1.35, "HAR_Total": 208.33, "SAR": 2.18, "RSC": 0.0, "Na%": 42.22 }, "geometry": { "type": "Point", "coordinates": [ 78.193611, 9.939444 ] } },
{ "type": "Feature", "properties": { "Well No": "21079", "Taluk": "Madurai North", "Village": "Rajakkur", "Latitude_DD": 9.928611, "Longitude_DD": 78.238333, "Total_Samples": 2, "TDS": 1021.0, "EC_GEN": 1820.0, "pH_GEN": 8.35, "F": 0.44, "NO2+NO3": 2.5, "HAR_Total": 165.0, "SAR": 17.77, "RSC": 5.7, "Na%": 81.37 }, "geometry": { "type": "Point", "coordinates": [ 78.238333, 9.928611 ] } },
{ "type": "Feature", "properties": { "Well No": "21080", "Taluk": "Madurai North", "Village": "Kalimangalam", "Latitude_DD": 9.878333, "Longitude_DD": 78.238889, "Total_Samples": 2, "TDS": 1812.0, "EC_GEN": 3185.0, "pH_GEN": 8.35, "F": 1.1, "NO2+NO3": 9.5, "HAR_Total": 280.0, "SAR": 26.01, "RSC": 7.1, "Na%": 74.41 }, "geometry": { "type": "Point", "coordinates": [ 78.238889, 9.878333 ] } },
{ "type": "Feature", "properties": { "Well No": "21081", "Taluk": "Madurai North", "Village": "Elamanur", "Latitude_DD": 9.900556, "Longitude_DD": 78.210833, "Total_Samples": 3, "TDS": 1174.0, "EC_GEN": 2173.33, "pH_GEN": 8.17, "F": 0.89, "NO2+NO3": 7.33, "HAR_Total": 706.67, "SAR": 4.15, "RSC": 1.8, "Na%": 43.19 }, "geometry": { "type": "Point", "coordinates": [ 78.210833, 9.900556 ] } },
{ "type": "Feature", "properties": { "Well No": "21082", "Taluk": "Madurai South", "Village": "Nallur", "Latitude_DD": 9.788333, "Longitude_DD": 78.133333, "Total_Samples": 3, "TDS": 357.33, "EC_GEN": 673.33, "pH_GEN": 8.2, "F": 0.18, "NO2+NO3": 5.67, "HAR_Total": 261.67, "SAR": 1.01, "RSC": 0.0, "Na%": 23.47 }, "geometry": { "type": "Point", "coordinates": [ 78.133333, 9.788333 ] } },
{ "type": "Feature", "properties": { "Well No": "21083", "Taluk": "Madurai South", "Village": "Nilaiyur", "Latitude_DD": 9.855556, "Longitude_DD": 78.059167, "Total_Samples": 3, "TDS": 1256.67, "EC_GEN": 2213.33, "pH_GEN": 8.2, "F": 0.51, "NO2+NO3": 14.33, "HAR_Total": 600.0, "SAR": 4.46, "RSC": 0.0, "Na%": 46.69 }, "geometry": { "type": "Point", "coordinates": [ 78.059167, 9.855556 ] } },
{ "type": "Feature", "properties": { "Well No": "21084", "Taluk": "Madurai South", "Village": "Sakkilipatti", "Latitude_DD": 9.901389, "Longitude_DD": 78.011111, "Total_Samples": 2, "TDS": 1771.0, "EC_GEN": 3065.0, "pH_GEN": 7.75, "F": 0.45, "NO2+NO3": 25.0, "HAR_Total": 890.0, "SAR": 4.47, "RSC": 0.0, "Na%": 40.77 }, "geometry": { "type": "Point", "coordinates": [ 78.011111, 9.901389 ] } },
{ "type": "Feature", "properties": { "Well No": "83005", "Taluk": "Madurai South", "Village": "Thiruparankundram", "Latitude_DD": 9.879167, "Longitude_DD": 78.114444, "Total_Samples": 17, "TDS": 1579.53, "EC_GEN": 2745.29, "pH_GEN": 7.86, "F": 1.12, "NO2+NO3": 19.35, "HAR_Total": 512.35, "SAR": 8.18, "RSC": 0.73, "Na%": 63.25 }, "geometry": { "type": "Point", "coordinates": [ 78.114444, 9.879167 ] } },
{ "type": "Feature", "properties": { "Well No": "83006", "Taluk": "Thirumangalam", "Village": "Sathangudi", "Latitude_DD": 9.839167, "Longitude_DD": 77.939722, "Total_Samples": 4, "TDS": 2590.25, "EC_GEN": 4427.5, "pH_GEN": 7.9, "F": 0.83, "NO2+NO3": 67.75, "HAR_Total": 1085.0, "SAR": 6.59, "RSC": 0.0, "Na%": 47.73 }, "geometry": { "type": "Point", "coordinates": [ 77.939722, 9.839167 ] } },
{ "type": "Feature", "properties": { "Well No": "83008", "Taluk": "Peraiyur", "Village": "Elumalai", "Latitude_DD": 9.861111, "Longitude_DD": 77.701111, "Total_Samples": 1, "TDS": 739.0, "EC_GEN": 1280.0, "pH_GEN": 8.1, "F": 1.3, "NO2+NO3": 35.0, "HAR_Total": 455.0, "SAR": 1.77, "RSC": 0.0, "Na%": 29.15 }, "geometry": { "type": "Point", "coordinates": [ 77.701111, 9.861111 ] } },
{ "type": "Feature", "properties": { "Well No": "83013", "Taluk": "Usilampatti", "Village": "Usilamaptti", "Latitude_DD": 9.966111, "Longitude_DD": 77.7925, "Total_Samples": 14, "TDS": 670.36, "EC_GEN": 1210.0, "pH_GEN": 7.81, "F": 0.95, "NO2+NO3": 10.07, "HAR_Total": 355.0, "SAR": 2.69, "RSC": 0.15, "Na%": 39.43 }, "geometry": { "type": "Point", "coordinates": [ 77.7925, 9.966111 ] } },
{ "type": "Feature", "properties": { "Well No": "83048", "Taluk": "Thirumangalam", "Village": "Puliankulam (M)", "Latitude_DD": 9.651667, "Longitude_DD": 77.909167, "Total_Samples": 16, "TDS": 863.31, "EC_GEN": 1522.5, "pH_GEN": 7.85, "F": 0.81, "NO2+NO3": 19.75, "HAR_Total": 472.19, "SAR": 2.73, "RSC": 0.33, "Na%": 35.93 }, "geometry": { "type": "Point", "coordinates": [ 77.909167, 9.651667 ] } },
{ "type": "Feature", "properties": { "Well No": "83049", "Taluk": "Thirumangalam", "Village": "Peikulam", "Latitude_DD": 9.645556, "Longitude_DD": 77.990278, "Total_Samples": 14, "TDS": 588.36, "EC_GEN": 1013.57, "pH_GEN": 7.99, "F": 0.26, "NO2+NO3": 14.29, "HAR_Total": 293.57, "SAR": 2.42, "RSC": 0.37, "Na%": 39.72 }, "geometry": { "type": "Point", "coordinates": [ 77.990278, 9.645556 ] } },
{ "type": "Feature", "properties": { "Well No": "83051", "Taluk": "Peraiyur", "Village": "Karaikeni", "Latitude_DD": 9.708333, "Longitude_DD": 77.968333, "Total_Samples": 13, "TDS": 651.08, "EC_GEN": 1139.23, "pH_GEN": 7.89, "F": 1.37, "NO2+NO3": 18.31, "HAR_Total": 364.23, "SAR": 2.31, "RSC": 0.16, "Na%": 34.05 }, "geometry": { "type": "Point", "coordinates": [ 77.968333, 9.708333 ] } },
{ "type": "Feature", "properties": { "Well No": "83052", "Taluk": "Peraiyur", "Village": "Saptur", "Latitude_DD": 9.756389, "Longitude_DD": 77.741389, "Total_Samples": 3, "TDS": 861.67, "EC_GEN": 1496.67, "pH_GEN": 7.9, "F": 0.45, "NO2+NO3": 17.33, "HAR_Total": 441.67, "SAR": 2.73, "RSC": 0.77, "Na%": 37.13 }, "geometry": { "type": "Point", "coordinates": [ 77.741389, 9.756389 ] } },
{ "type": "Feature", "properties": { "Well No": "83059", "Taluk": "Thirumangalam", "Village": "Sengapadai", "Latitude_DD": 9.781944, "Longitude_DD": 77.95, "Total_Samples": 1, "TDS": 1365.0, "EC_GEN": 2400.0, "pH_GEN": 8.1, "F": 0.69, "NO2+NO3": 32.0, "HAR_Total": 800.0, "SAR": 2.91, "RSC": 0.0, "Na%": 33.71 }, "geometry": { "type": "Point", "coordinates": [ 77.95, 9.781944 ] } },
{ "type": "Feature", "properties": { "Well No": "83063", "Taluk": "Thirumangalam", "Village": "Thangalacheri", "Latitude_DD": 9.836058, "Longitude_DD": 77.868835, "Total_Samples": 2, "TDS": 1190.0, "EC_GEN": 1960.0, "pH_GEN": 8.1, "F": 0.44, "NO2+NO3": 50.5, "HAR_Total": 515.0, "SAR": 4.75, "RSC": 0.0, "Na%": 50.08 }, "geometry": { "type": "Point", "coordinates": [ 77.868835, 9.836058 ] } },
{ "type": "Feature", "properties": { "Well No": "83064", "Taluk": "Peraiyur", "Village": "Thirumanickam", "Latitude_DD": 9.848889, "Longitude_DD": 77.752222, "Total_Samples": 12, "TDS": 858.58, "EC_GEN": 1435.83, "pH_GEN": 8.07, "F": 0.84, "NO2+NO3": 25.0, "HAR_Total": 447.5, "SAR": 2.62, "RSC": 0.13, "Na%": 38.76 }, "geometry": { "type": "Point", "coordinates": [ 77.752222, 9.848889 ] } },
{ "type": "Feature", "properties": { "Well No": "83073", "Taluk": "Thirumangalam", "Village": "Chokkanathapuram", "Latitude_DD": 9.938056, "Longitude_DD": 77.965278, "Total_Samples": 4, "TDS": 599.5, "EC_GEN": 1007.5, "pH_GEN": 7.65, "F": 0.68, "NO2+NO3": 20.0, "HAR_Total": 318.75, "SAR": 2.2, "RSC": 0.0, "Na%": 36.09 }, "geometry": { "type": "Point", "coordinates": [ 77.965278, 9.938056 ] } },
{ "type": "Feature", "properties": { "Well No": "83082", "Taluk": "Usilampatti", "Village": "Uthappanaickanur", "Latitude_DD": 10.033333, "Longitude_DD": 77.787778, "Total_Samples": 14, "TDS": 845.93, "EC_GEN": 1542.14, "pH_GEN": 8.02, "F": 0.89, "NO2+NO3": 14.86, "HAR_Total": 585.71, "SAR": 1.46, "RSC": 0.0, "Na%": 21.64 }, "geometry": { "type": "Point", "coordinates": [ 77.787778, 10.033333 ] } },
{ "type": "Feature", "properties": { "Well No": "83095", "Taluk": "Melur", "Village": "Pulipatti", "Latitude_DD": 10.084444, "Longitude_DD": 78.288889, "Total_Samples": 15, "TDS": 1596.87, "EC_GEN": 2849.33, "pH_GEN": 7.99, "F": 0.78, "NO2+NO3": 2.6, "HAR_Total": 579.33, "SAR": 7.38, "RSC": 0.22, "Na%": 60.24 }, "geometry": { "type": "Point", "coordinates": [ 78.288889, 10.084444 ] } },
{ "type": "Feature", "properties": { "Well No": "83096", "Taluk": "Melur", "Village": "Thumbalapatti", "Latitude_DD": 9.869444, "Longitude_DD": 77.776111, "Total_Samples": 2, "TDS": 570.0, "EC_GEN": 1030.0, "pH_GEN": 8.2, "F": 0.38, "NO2+NO3": 6.0, "HAR_Total": 285.0, "SAR": 2.48, "RSC": 0.0, "Na%": 39.96 }, "geometry": { "type": "Point", "coordinates": [ 77.776111, 9.869444 ] } },
{ "type": "Feature", "properties": { "Well No": "83099", "Taluk": "Madurai North", "Village": "Kadavur", "Latitude_DD": 10.075, "Longitude_DD": 78.175, "Total_Samples": 16, "TDS": 565.25, "EC_GEN": 1038.12, "pH_GEN": 7.8, "F": 0.55, "NO2+NO3": 7.75, "HAR_Total": 412.5, "SAR": 1.28, "RSC": 0.35, "Na%": 21.59 }, "geometry": { "type": "Point", "coordinates": [ 78.175, 10.075 ] } },
{ "type": "Feature", "properties": { "Well No": "83506", "Taluk": "Melur", "Village": "Kottampatti", "Latitude_DD": 10.1612, "Longitude_DD": 78.3341, "Total_Samples": 4, "TDS": 1410.75, "EC_GEN": 2570.0, "pH_GEN": 7.82, "F": 1.01, "NO2+NO3": 23.75, "HAR_Total": 786.25, "SAR": 3.69, "RSC": 0.03, "Na%": 36.99 }, "geometry": { "type": "Point", "coordinates": [ 78.3341, 10.1612 ] } },
{ "type": "Feature", "properties": { "Well No": "501001", "Taluk": "Madurai North", "Village": "Oomatchikulam", "Latitude_DD": 10.005, "Longitude_DD": 78.148056, "Total_Samples": 3, "TDS": 466.0, "EC_GEN": 880.0, "pH_GEN": 8.17, "F": 1.11, "NO2+NO3": 7.33, "HAR_Total": 301.67, "SAR": 1.55, "RSC": 0.0, "Na%": 30.08 }, "geometry": { "type": "Point", "coordinates": [ 78.148056, 10.005 ] } },
{ "type": "Feature", "properties": { "Well No": "501002", "Taluk": "Vadipatti", "Village": "Thanichiyam", "Latitude_DD": 10.041111, "Longitude_DD": 78.010556, "Total_Samples": 2, "TDS": 1032.5, "EC_GEN": 1840.0, "pH_GEN": 8.15, "F": 1.18, "NO2+NO3": 14.5, "HAR_Total": 405.0, "SAR": 4.82, "RSC": 0.9, "Na%": 42.49 }, "geometry": { "type": "Point", "coordinates": [ 78.010556, 10.041111 ] } },
{ "type": "Feature", "properties": { "Well No": "501003", "Taluk": "Madurai North", "Village": "Varichiyur", "Latitude_DD": 9.913056, "Longitude_DD": 78.251111, "Total_Samples": 3, "TDS": 1220.33, "EC_GEN": 2136.67, "pH_GEN": 8.0, "F": 0.8, "NO2+NO3": 21.0, "HAR_Total": 583.33, "SAR": 4.16, "RSC": 0.0, "Na%": 45.43 }, "geometry": { "type": "Point", "coordinates": [ 78.251111, 9.913056 ] } },
{ "type": "Feature", "properties": { "Well No": "501004", "Taluk": "Madurai North", "Village": "Sakkudi", "Latitude_DD": 9.864167, "Longitude_DD": 78.223611, "Total_Samples": 3, "TDS": 626.0, "EC_GEN": 1116.67, "pH_GEN": 8.47, "F": 0.72, "NO2+NO3": 7.0, "HAR_Total": 238.33, "SAR": 4.06, "RSC": 1.13, "Na%": 48.81 }, "geometry": { "type": "Point", "coordinates": [ 78.223611, 9.864167 ] } },
{ "type": "Feature", "properties": { "Well No": "501005", "Taluk": "Madurai North", "Village": "Chithakur", "Latitude_DD": 9.948333, "Longitude_DD": 78.243611, "Total_Samples": 3, "TDS": 1589.67, "EC_GEN": 2893.33, "pH_GEN": 8.0, "F": 1.09, "NO2+NO3": 17.0, "HAR_Total": 931.67, "SAR": 4.99, "RSC": 3.0, "Na%": 51.7 }, "geometry": { "type": "Point", "coordinates": [ 78.243611, 9.948333 ] } },
{ "type": "Feature", "properties": { "Well No": "501006", "Taluk": "Madurai North", "Village": "Poikaraipatti", "Latitude_DD": 10.047222, "Longitude_DD": 78.202778, "Total_Samples": 2, "TDS": 713.5, "EC_GEN": 1280.0, "pH_GEN": 8.3, "F": 0.36, "NO2+NO3": 7.0, "HAR_Total": 325.0, "SAR": 4.27, "RSC": 1.6, "Na%": 50.69 }, "geometry": { "type": "Point", "coordinates": [ 78.202778, 10.047222 ] } },
{ "type": "Feature", "properties": { "Well No": "501007", "Taluk": "Madurai North", "Village": "Velliankundram", "Latitude_DD": 10.020556, "Longitude_DD": 78.178333, "Total_Samples": 3, "TDS": 568.33, "EC_GEN": 1026.67, "pH_GEN": 7.93, "F": 0.41, "NO2+NO3": 4.0, "HAR_Total": 306.67, "SAR": 2.39, "RSC": 0.0, "Na%": 39.2 }, "geometry": { "type": "Point", "coordinates": [ 78.178333, 10.020556 ] } },
{ "type": "Feature", "properties": { "Well No": "501012", "Taluk": "Madurai South", "Village": "Vilacherry", "Latitude_DD": 9.9, "Longitude_DD": 78.059444, "Total_Samples": 3, "TDS": 403.0, "EC_GEN": 740.0, "pH_GEN": 8.13, "F": 0.73, "NO2+NO3": 3.33, "HAR_Total": 253.33, "SAR": 1.6, "RSC": 0.04, "Na%": 33.08 }, "geometry": { "type": "Point", "coordinates": [ 78.059444, 9.9 ] } },
{ "type": "Feature", "properties": { "Well No": "501013", "Taluk": "Melur", "Village": "Veppaodappu", "Latitude_DD": 9.917222, "Longitude_DD": 78.303889, "Total_Samples": 2, "TDS": 410.0, "EC_GEN": 720.0, "pH_GEN": 8.3, "F": 1.06, "NO2+NO3": 11.0, "HAR_Total": 220.0, "SAR": 1.95, "RSC": 0.0, "Na%": 39.01 }, "geometry": { "type": "Point", "coordinates": [ 78.303889, 9.917222 ] } },
{ "type": "Feature", "properties": { "Well No": "501014", "Taluk": "Melur", "Village": "Ambalakkaranpatti", "Latitude_DD": 9.972222, "Longitude_DD": 78.395, "Total_Samples": 1, "TDS": 482.0, "EC_GEN": 880.0, "pH_GEN": 8.3, "F": 0.64, "NO2+NO3": 5.0, "HAR_Total": 200.0, "SAR": 3.26, "RSC": 0.0, "Na%": 52.78 }, "geometry": { "type": "Point", "coordinates": [ 78.395, 9.972222 ] } },
{ "type": "Feature", "properties": { "Well No": "501016", "Taluk": "Melur", "Village": "Navinipatti", "Latitude_DD": 10.043889, "Longitude_DD": 78.362778, "Total_Samples": 2, "TDS": 500.0, "EC_GEN": 880.0, "pH_GEN": 8.35, "F": 0.28, "NO2+NO3": 12.5, "HAR_Total": 335.0, "SAR": 1.17, "RSC": 0.0, "Na%": 23.81 }, "geometry": { "type": "Point", "coordinates": [ 78.362778, 10.043889 ] } },
{ "type": "Feature", "properties": { "Well No": "501018", "Taluk": "Melur", "Village": "Manappacheri", "Latitude_DD": 10.217222, "Longitude_DD": 78.350278, "Total_Samples": 2, "TDS": 1051.0, "EC_GEN": 1970.0, "pH_GEN": 7.95, "F": 0.92, "NO2+NO3": 2.0, "HAR_Total": 535.0, "SAR": 3.93, "RSC": 0.0, "Na%": 45.49 }, "geometry": { "type": "Point", "coordinates": [ 78.350278, 10.217222 ] } },
{ "type": "Feature", "properties": { "Well No": "501021", "Taluk": "Melur", "Village": "Surakundu", "Latitude_DD": 10.036944, "Longitude_DD": 78.315, "Total_Samples": 1, "TDS": 626.0, "EC_GEN": 1130.0, "pH_GEN": 8.3, "F": 0.98, "NO2+NO3": 6.0, "HAR_Total": 325.0, "SAR": 2.9, "RSC": 0.0, "Na%": 44.36 }, "geometry": { "type": "Point", "coordinates": [ 78.315, 10.036944 ] } },
{ "type": "Feature", "properties": { "Well No": "501023", "Taluk": "Peraiyur", "Village": "Mangalrev", "Latitude_DD": 9.786111, "Longitude_DD": 77.797222, "Total_Samples": 3, "TDS": 932.67, "EC_GEN": 1640.0, "pH_GEN": 8.17, "F": 1.27, "NO2+NO3": 8.0, "HAR_Total": 381.67, "SAR": 4.4, "RSC": 0.17, "Na%": 53.73 }, "geometry": { "type": "Point", "coordinates": [ 77.797222, 9.786111 ] } },
{ "type": "Feature", "properties": { "Well No": "501028", "Taluk": "Peraiyur", "Village": "Athanur", "Latitude_DD": 9.725, "Longitude_DD": 77.895556, "Total_Samples": 3, "TDS": 409.67, "EC_GEN": 746.67, "pH_GEN": 8.27, "F": 1.07, "NO2+NO3": 4.0, "HAR_Total": 163.33, "SAR": 3.34, "RSC": 1.36, "Na%": 54.64 }, "geometry": { "type": "Point", "coordinates": [ 77.895556, 9.725 ] } },
{ "type": "Feature", "properties": { "Well No": "501030", "Taluk": "Peraiyur", "Village": "Mothagam", "Latitude_DD": 9.679167, "Longitude_DD": 77.808889, "Total_Samples": 3, "TDS": 1695.0, "EC_GEN": 2843.33, "pH_GEN": 8.43, "F": 0.15, "NO2+NO3": 25.0, "HAR_Total": 536.67, "SAR": 6.08, "RSC": 0.0, "Na%": 49.05 }, "geometry": { "type": "Point", "coordinates": [ 77.808889, 9.679167 ] } },
{ "type": "Feature", "properties": { "Well No": "501032", "Taluk": "Peraiyur", "Village": "Salichanthai", "Latitude_DD": 9.728333, "Longitude_DD": 77.801944, "Total_Samples": 3, "TDS": 2762.0, "EC_GEN": 5040.0, "pH_GEN": 8.1, "F": 0.42, "NO2+NO3": 4.35, "HAR_Total": 1316.67, "SAR": 6.61, "RSC": 0.0, "Na%": 47.74 }, "geometry": { "type": "Point", "coordinates": [ 77.801944, 9.728333 ] } },
{ "type": "Feature", "properties": { "Well No": "501033", "Taluk": "Madurai North", "Village": "Samayanallur", "Latitude_DD": 9.980833, "Longitude_DD": 78.042222, "Total_Samples": 3, "TDS": 977.33, "EC_GEN": 1790.0, "pH_GEN": 7.87, "F": 0.87, "NO2+NO3": 3.0, "HAR_Total": 356.67, "SAR": 5.82, "RSC": 2.57, "Na%": 53.35 }, "geometry": { "type": "Point", "coordinates": [ 78.042222, 9.980833 ] } },
{ "type": "Feature", "properties": { "Well No": "501035", "Taluk": "Madurai South", "Village": "Nedunkulam", "Latitude_DD": 9.787222, "Longitude_DD": 78.178056, "Total_Samples": 3, "TDS": 1120.0, "EC_GEN": 1993.33, "pH_GEN": 8.2, "F": 0.94, "NO2+NO3": 23.0, "HAR_Total": 551.67, "SAR": 3.85, "RSC": 0.0, "Na%": 43.74 }, "geometry": { "type": "Point", "coordinates": [ 78.178056, 9.787222 ] } },
{ "type": "Feature", "properties": { "Well No": "501036", "Taluk": "Madurai South", "Village": "Othai Alangulam", "Latitude_DD": 9.809722, "Longitude_DD": 78.055, "Total_Samples": 3, "TDS": 1840.67, "EC_GEN": 3310.0, "pH_GEN": 7.97, "F": 0.68, "NO2+NO3": 19.67, "HAR_Total": 1050.0, "SAR": 3.92, "RSC": 0.0, "Na%": 37.93 }, "geometry": { "type": "Point", "coordinates": [ 78.055, 9.809722 ] } },
{ "type": "Feature", "properties": { "Well No": "501037", "Taluk": "Thirumangalam", "Village": "Mykudi", "Latitude_DD": 9.787778, "Longitude_DD": 78.016667, "Total_Samples": 3, "TDS": 1387.0, "EC_GEN": 2403.33, "pH_GEN": 8.3, "F": 1.23, "NO2+NO3": 7.33, "HAR_Total": 450.0, "SAR": 7.0, "RSC": 0.0, "Na%": 60.94 }, "geometry": { "type": "Point", "coordinates": [ 78.016667, 9.787778 ] } },
{ "type": "Feature", "properties": { "Well No": "501043", "Taluk": "Thirumangalam", "Village": "Sivarakottai", "Latitude_DD": 9.744722, "Longitude_DD": 77.98, "Total_Samples": 2, "TDS": 454.5, "EC_GEN": 815.0, "pH_GEN": 8.45, "F": 1.3, "NO2+NO3": 6.5, "HAR_Total": 117.5, "SAR": 5.07, "RSC": 3.51, "Na%": 67.64 }, "geometry": { "type": "Point", "coordinates": [ 77.98, 9.744722 ] } },
{ "type": "Feature", "properties": { "Well No": "501050", "Taluk": "Usilampatti", "Village": "Thumbalapatti", "Latitude_DD": 9.869444, "Longitude_DD": 77.776111, "Total_Samples": 3, "TDS": 874.67, "EC_GEN": 1606.67, "pH_GEN": 8.0, "F": 1.18, "NO2+NO3": 12.0, "HAR_Total": 576.67, "SAR": 1.94, "RSC": 0.0, "Na%": 25.72 }, "geometry": { "type": "Point", "coordinates": [ 77.776111, 9.869444 ] } },
{ "type": "Feature", "properties": { "Well No": "501053", "Taluk": "Vadipatti", "Village": "Alagapuri", "Latitude_DD": 10.056389, "Longitude_DD": 78.069722, "Total_Samples": 3, "TDS": 914.67, "EC_GEN": 1656.67, "pH_GEN": 8.57, "F": 0.87, "NO2+NO3": 17.67, "HAR_Total": 421.67, "SAR": 4.29, "RSC": 1.4, "Na%": 44.79 }, "geometry": { "type": "Point", "coordinates": [ 78.069722, 10.056389 ] } },
{ "type": "Feature", "properties": { "Well No": "501054", "Taluk": "Vadipatti", "Village": "Manickampatti", "Latitude_DD": 10.104444, "Longitude_DD": 78.125278, "Total_Samples": 2, "TDS": 837.5, "EC_GEN": 1480.0, "pH_GEN": 8.25, "F": 0.77, "NO2+NO3": 15.5, "HAR_Total": 342.5, "SAR": 4.14, "RSC": 0.0, "Na%": 47.66 }, "geometry": { "type": "Point", "coordinates": [ 78.125278, 10.104444 ] } },
{ "type": "Feature", "properties": { "Well No": "21001D", "Taluk": "Madurai South", "Village": "Thiruparankundram", "Latitude_DD": 9.877778, "Longitude_DD": 78.097222, "Total_Samples": 29, "TDS": 1322.1, "EC_GEN": 2315.52, "pH_GEN": 8.08, "F": 1.11, "NO2+NO3": 5.28, "HAR_Total": 370.34, "SAR": 8.2, "RSC": 2.0, "Na%": 67.55 }, "geometry": { "type": "Point", "coordinates": [ 78.097222, 9.877778 ] } },
{ "type": "Feature", "properties": { "Well No": "21002D", "Taluk": "Thirumangalam", "Village": "Chokkanathapuram", "Latitude_DD": 9.945556, "Longitude_DD": 77.975556, "Total_Samples": 23, "TDS": 745.96, "EC_GEN": 1273.26, "pH_GEN": 7.91, "F": 0.63, "NO2+NO3": 16.39, "HAR_Total": 435.22, "SAR": 1.99, "RSC": 0.0, "Na%": 32.46 }, "geometry": { "type": "Point", "coordinates": [ 77.975556, 9.945556 ] } },
{ "type": "Feature", "properties": { "Well No": "21003D", "Taluk": "Peraiyur", "Village": "Chinnakattalai", "Latitude_DD": 9.845556, "Longitude_DD": 77.796667, "Total_Samples": 13, "TDS": 1166.0, "EC_GEN": 2013.08, "pH_GEN": 8.0, "F": 1.08, "NO2+NO3": 30.15, "HAR_Total": 472.31, "SAR": 5.06, "RSC": 0.2, "Na%": 52.75 }, "geometry": { "type": "Point", "coordinates": [ 77.796667, 9.845556 ] } },
{ "type": "Feature", "properties": { "Well No": "21004D", "Taluk": "Thirumangalam", "Village": "Chinna Ulagani", "Latitude_DD": 9.773611, "Longitude_DD": 78.052222, "Total_Samples": 29, "TDS": 1491.14, "EC_GEN": 2515.86, "pH_GEN": 7.98, "F": 0.85, "NO2+NO3": 11.93, "HAR_Total": 740.34, "SAR": 3.98, "RSC": 0.31, "Na%": 44.51 }, "geometry": { "type": "Point", "coordinates": [ 78.052222, 9.773611 ] } },
{ "type": "Feature", "properties": { "Well No": "21005D", "Taluk": "Madurai South", "Village": "Eliyarpatti", "Latitude_DD": 9.794444, "Longitude_DD": 78.090278, "Total_Samples": 29, "TDS": 626.66, "EC_GEN": 1045.17, "pH_GEN": 8.04, "F": 0.72, "NO2+NO3": 30.48, "HAR_Total": 345.86, "SAR": 2.03, "RSC": 0.05, "Na%": 34.89 }, "geometry": { "type": "Point", "coordinates": [ 78.090278, 9.794444 ] } },
{ "type": "Feature", "properties": { "Well No": "21006D", "Taluk": "Peraiyur", "Village": "Elumalai RF", "Latitude_DD": 9.861111, "Longitude_DD": 77.7, "Total_Samples": 29, "TDS": 475.62, "EC_GEN": 843.97, "pH_GEN": 7.98, "F": 0.88, "NO2+NO3": 11.1, "HAR_Total": 280.52, "SAR": 1.87, "RSC": 0.49, "Na%": 32.1 }, "geometry": { "type": "Point", "coordinates": [ 77.7, 9.861111 ] } },
{ "type": "Feature", "properties": { "Well No": "21007D", "Taluk": "Thirumangalam", "Village": "Kallikudi", "Latitude_DD": 9.693889, "Longitude_DD": 77.971111, "Total_Samples": 28, "TDS": 1798.86, "EC_GEN": 3095.54, "pH_GEN": 8.01, "F": 0.93, "NO2+NO3": 28.75, "HAR_Total": 1282.68, "SAR": 1.96, "RSC": 0.16, "Na%": 22.15 }, "geometry": { "type": "Point", "coordinates": [ 77.971111, 9.693889 ] } },
{ "type": "Feature", "properties": { "Well No": "21008D", "Taluk": "Madurai South", "Village": "Melamathur", "Latitude_DD": 9.968056, "Longitude_DD": 78.007778, "Total_Samples": 17, "TDS": 761.65, "EC_GEN": 1240.88, "pH_GEN": 7.99, "F": 0.98, "NO2+NO3": 26.24, "HAR_Total": 355.88, "SAR": 2.97, "RSC": 0.5, "Na%": 42.98 }, "geometry": { "type": "Point", "coordinates": [ 78.007778, 9.968056 ] } },
{ "type": "Feature", "properties": { "Well No": "21009A", "Taluk": "Thirumangalam", "Village": "Utchapatti", "Latitude_DD": 9.856667, "Longitude_DD": 78.009444, "Total_Samples": 5, "TDS": 1481.0, "EC_GEN": 2568.0, "pH_GEN": 8.1, "F": 0.72, "NO2+NO3": 36.0, "HAR_Total": 744.0, "SAR": 4.09, "RSC": 0.0, "Na%": 42.08 }, "geometry": { "type": "Point", "coordinates": [ 78.009444, 9.856667 ] } },
{ "type": "Feature", "properties": { "Well No": "21009D", "Taluk": "Thirumangalam", "Village": "Kappalur", "Latitude_DD": 9.843056, "Longitude_DD": 78.018611, "Total_Samples": 22, "TDS": 1229.82, "EC_GEN": 2141.36, "pH_GEN": 7.79, "F": 0.67, "NO2+NO3": 44.91, "HAR_Total": 694.32, "SAR": 2.72, "RSC": 0.0, "Na%": 34.54 }, "geometry": { "type": "Point", "coordinates": [ 78.018611, 9.843056 ] } },
{ "type": "Feature", "properties": { "Well No": "21010D", "Taluk": "Madurai North", "Village": "Karupayoorani", "Latitude_DD": 9.931944, "Longitude_DD": 78.177778, "Total_Samples": 22, "TDS": 1003.55, "EC_GEN": 1680.0, "pH_GEN": 7.85, "F": 0.62, "NO2+NO3": 13.68, "HAR_Total": 314.09, "SAR": 5.69, "RSC": 0.66, "Na%": 58.36 }, "geometry": { "type": "Point", "coordinates": [ 78.177778, 9.931944 ] } },
{ "type": "Feature", "properties": { "Well No": "21011D", "Taluk": "Peraiyur", "Village": "Mallapuram", "Latitude_DD": 9.805556, "Longitude_DD": 77.668333, "Total_Samples": 14, "TDS": 699.36, "EC_GEN": 1222.86, "pH_GEN": 7.91, "F": 0.76, "NO2+NO3": 16.36, "HAR_Total": 344.29, "SAR": 2.57, "RSC": 0.5, "Na%": 35.44 }, "geometry": { "type": "Point", "coordinates": [ 77.668333, 9.805556 ] } },
{ "type": "Feature", "properties": { "Well No": "21012D", "Taluk": "Thirumangalam", "Village": "Kurayur", "Latitude_DD": 9.694444, "Longitude_DD": 78.025, "Total_Samples": 29, "TDS": 1306.21, "EC_GEN": 2180.69, "pH_GEN": 8.06, "F": 0.68, "NO2+NO3": 28.41, "HAR_Total": 453.97, "SAR": 5.83, "RSC": 1.28, "Na%": 55.17 }, "geometry": { "type": "Point", "coordinates": [ 78.025, 9.694444 ] } },
{ "type": "Feature", "properties": { "Well No": "21013D", "Taluk": "Vadipatti", "Village": "Manianji", "Latitude_DD": 10.004167, "Longitude_DD": 78.1025, "Total_Samples": 23, "TDS": 455.78, "EC_GEN": 784.78, "pH_GEN": 8.02, "F": 0.62, "NO2+NO3": 9.22, "HAR_Total": 231.96, "SAR": 2.06, "RSC": 0.52, "Na%": 38.62 }, "geometry": { "type": "Point", "coordinates": [ 78.1025, 10.004167 ] } },
{ "type": "Feature", "properties": { "Well No": "21014D", "Taluk": "Madurai South", "Village": "Kilakuilkudi", "Latitude_DD": 9.928333, "Longitude_DD": 78.055, "Total_Samples": 12, "TDS": 618.08, "EC_GEN": 1150.83, "pH_GEN": 7.57, "F": 0.43, "NO2+NO3": 7.17, "HAR_Total": 435.83, "SAR": 1.6, "RSC": 0.18, "Na%": 20.94 }, "geometry": { "type": "Point", "coordinates": [ 78.055, 9.928333 ] } },
{ "type": "Feature", "properties": { "Well No": "21015D", "Taluk": "Peraiyur", "Village": "Peraiyur", "Latitude_DD": 9.74, "Longitude_DD": 77.793333, "Total_Samples": 29, "TDS": 511.21, "EC_GEN": 870.69, "pH_GEN": 7.86, "F": 0.69, "NO2+NO3": 11.86, "HAR_Total": 305.52, "SAR": 1.66, "RSC": 0.18, "Na%": 32.36 }, "geometry": { "type": "Point", "coordinates": [ 77.793333, 9.74 ] } },
{ "type": "Feature", "properties": { "Well No": "21016D", "Taluk": "Peraiyur", "Village": "Subbulapuram", "Latitude_DD": 9.675556, "Longitude_DD": 77.809444, "Total_Samples": 29, "TDS": 399.86, "EC_GEN": 685.86, "pH_GEN": 7.88, "F": 0.38, "NO2+NO3": 9.29, "HAR_Total": 243.45, "SAR": 1.37, "RSC": 0.24, "Na%": 24.41 }, "geometry": { "type": "Point", "coordinates": [ 77.809444, 9.675556 ] } },
{ "type": "Feature", "properties": { "Well No": "21017D", "Taluk": "Thirumangalam", "Village": "Thangalacheri", "Latitude_DD": 9.836111, "Longitude_DD": 77.868889, "Total_Samples": 26, "TDS": 1688.08, "EC_GEN": 2732.69, "pH_GEN": 8.07, "F": 0.52, "NO2+NO3": 59.08, "HAR_Total": 726.54, "SAR": 4.93, "RSC": 0.39, "Na%": 48.75 }, "geometry": { "type": "Point", "coordinates": [ 77.868889, 9.836111 ] } },
{ "type": "Feature", "properties": { "Well No": "21018D", "Taluk": "Thirumangalam", "Village": "Peikulam", "Latitude_DD": 9.645833, "Longitude_DD": 77.991111, "Total_Samples": 23, "TDS": 828.26, "EC_GEN": 1451.3, "pH_GEN": 7.99, "F": 0.24, "NO2+NO3": 29.13, "HAR_Total": 393.91, "SAR": 2.55, "RSC": 0.44, "Na%": 36.62 }, "geometry": { "type": "Point", "coordinates": [ 77.991111, 9.645833 ] } },
{ "type": "Feature", "properties": { "Well No": "21019D", "Taluk": "Melur", "Village": "Karungalakudi", "Latitude_DD": 10.155556, "Longitude_DD": 78.369167, "Total_Samples": 27, "TDS": 683.93, "EC_GEN": 1165.74, "pH_GEN": 7.92, "F": 0.7, "NO2+NO3": 6.24, "HAR_Total": 315.0, "SAR": 3.13, "RSC": 0.22, "Na%": 47.52 }, "geometry": { "type": "Point", "coordinates": [ 78.369167, 10.155556 ] } },
{ "type": "Feature", "properties": { "Well No": "21020D", "Taluk": "Melur", "Village": "Pallapatti", "Latitude_DD": 10.247222, "Longitude_DD": 78.386111, "Total_Samples": 23, "TDS": 499.74, "EC_GEN": 892.61, "pH_GEN": 8.06, "F": 0.64, "NO2+NO3": 7.2, "HAR_Total": 330.43, "SAR": 1.44, "RSC": 0.09, "Na%": 29.06 }, "geometry": { "type": "Point", "coordinates": [ 78.386111, 10.247222 ] } },
{ "type": "Feature", "properties": { "Well No": "21021D", "Taluk": "Melur", "Village": "Athipatti", "Latitude_DD": 10.086111, "Longitude_DD": 78.391667, "Total_Samples": 12, "TDS": 1105.58, "EC_GEN": 1920.83, "pH_GEN": 7.87, "F": 0.56, "NO2+NO3": 28.42, "HAR_Total": 453.75, "SAR": 5.16, "RSC": 0.41, "Na%": 54.25 }, "geometry": { "type": "Point", "coordinates": [ 78.391667, 10.086111 ] } },
{ "type": "Feature", "properties": { "Well No": "21022D", "Taluk": "Melur", "Village": "Pulipatti", "Latitude_DD": 10.086111, "Longitude_DD": 78.291667, "Total_Samples": 27, "TDS": 800.85, "EC_GEN": 1408.89, "pH_GEN": 8.03, "F": 0.62, "NO2+NO3": 4.04, "HAR_Total": 290.0, "SAR": 3.16, "RSC": 0.28, "Na%": 47.46 }, "geometry": { "type": "Point", "coordinates": [ 78.291667, 10.086111 ] } },
{ "type": "Feature", "properties": { "Well No": "21023D", "Taluk": "Melur", "Village": "Uranganpatti", "Latitude_DD": 9.998333, "Longitude_DD": 78.43, "Total_Samples": 27, "TDS": 457.11, "EC_GEN": 813.7, "pH_GEN": 7.91, "F": 0.6, "NO2+NO3": 7.24, "HAR_Total": 271.85, "SAR": 1.63, "RSC": 0.12, "Na%": 32.54 }, "geometry": { "type": "Point", "coordinates": [ 78.43, 9.998333 ] } },
{ "type": "Feature", "properties": { "Well No": "21024D", "Taluk": "Melur", "Village": "Thiruvadur", "Latitude_DD": 9.956944, "Longitude_DD": 78.319444, "Total_Samples": 27, "TDS": 816.41, "EC_GEN": 1388.15, "pH_GEN": 7.99, "F": 0.45, "NO2+NO3": 12.41, "HAR_Total": 336.85, "SAR": 3.4, "RSC": 0.89, "Na%": 46.96 }, "geometry": { "type": "Point", "coordinates": [ 78.319444, 9.956944 ] } },
{ "type": "Feature", "properties": { "Well No": "21025D", "Taluk": "Madurai North", "Village": "Varichiyur", "Latitude_DD": 9.908889, "Longitude_DD": 78.256111, "Total_Samples": 13, "TDS": 1057.62, "EC_GEN": 1823.08, "pH_GEN": 7.85, "F": 0.81, "NO2+NO3": 35.15, "HAR_Total": 466.92, "SAR": 4.49, "RSC": 0.46, "Na%": 48.47 }, "geometry": { "type": "Point", "coordinates": [ 78.256111, 9.908889 ] } },
{ "type": "Feature", "properties": { "Well No": "21026D", "Taluk": "Vadipatti", "Village": "Senthamangalam", "Latitude_DD": 10.138333, "Longitude_DD": 78.141111, "Total_Samples": 29, "TDS": 644.79, "EC_GEN": 1144.48, "pH_GEN": 8.03, "F": 0.83, "NO2+NO3": 20.24, "HAR_Total": 420.34, "SAR": 1.59, "RSC": 2.52, "Na%": 27.22 }, "geometry": { "type": "Point", "coordinates": [ 78.141111, 10.138333 ] } },
{ "type": "Feature", "properties": { "Well No": "21027D", "Taluk": "Vadipatti", "Village": "Thiruvedagam", "Latitude_DD": 10.019444, "Longitude_DD": 77.972222, "Total_Samples": 29, "TDS": 536.22, "EC_GEN": 972.76, "pH_GEN": 7.98, "F": 0.76, "NO2+NO3": 3.69, "HAR_Total": 335.52, "SAR": 1.59, "RSC": 0.09, "Na%": 30.12 }, "geometry": { "type": "Point", "coordinates": [ 77.972222, 10.019444 ] } },
{ "type": "Feature", "properties": { "Well No": "21028D", "Taluk": "Usilampatti", "Village": "Veppanuthu", "Latitude_DD": 9.897222, "Longitude_DD": 77.841667, "Total_Samples": 29, "TDS": 1199.55, "EC_GEN": 1994.66, "pH_GEN": 8.07, "F": 1.08, "NO2+NO3": 22.38, "HAR_Total": 496.21, "SAR": 4.38, "RSC": 0.09, "Na%": 49.14 }, "geometry": { "type": "Point", "coordinates": [ 77.841667, 9.897222 ] } },
{ "type": "Feature", "properties": { "Well No": "21029D", "Taluk": "Usilampatti", "Village": "Vikramangalam", "Latitude_DD": 10.021667, "Longitude_DD": 77.886667, "Total_Samples": 13, "TDS": 2160.69, "EC_GEN": 3639.23, "pH_GEN": 7.86, "F": 0.39, "NO2+NO3": 33.85, "HAR_Total": 913.08, "SAR": 5.84, "RSC": 0.0, "Na%": 44.88 }, "geometry": { "type": "Point", "coordinates": [ 77.886667, 10.021667 ] } },
{ "type": "Feature", "properties": { "Well No": "21030D", "Taluk": "Peraiyur", "Village": "Kunnathur", "Latitude_DD": 9.746944, "Longitude_DD": 77.889444, "Total_Samples": 13, "TDS": 437.69, "EC_GEN": 781.54, "pH_GEN": 7.87, "F": 0.75, "NO2+NO3": 5.69, "HAR_Total": 246.54, "SAR": 1.98, "RSC": 0.56, "Na%": 36.56 }, "geometry": { "type": "Point", "coordinates": [ 77.889444, 9.746944 ] } },
{ "type": "Feature", "properties": { "Well No": "21031D", "Taluk": "Usilampatti", "Village": "Uthappanaickanur", "Latitude_DD": 10.035556, "Longitude_DD": 77.791111, "Total_Samples": 24, "TDS": 1292.04, "EC_GEN": 2132.08, "pH_GEN": 7.97, "F": 0.61, "NO2+NO3": 41.75, "HAR_Total": 677.08, "SAR": 2.62, "RSC": 0.0, "Na%": 33.92 }, "geometry": { "type": "Point", "coordinates": [ 77.791111, 10.035556 ] } },
{ "type": "Feature", "properties": { "Well No": "21032D", "Taluk": "Usilampatti", "Village": "Doddappanaickanur", "Latitude_DD": 9.971111, "Longitude_DD": 77.736111, "Total_Samples": 23, "TDS": 961.0, "EC_GEN": 1675.0, "pH_GEN": 8.04, "F": 0.64, "NO2+NO3": 14.26, "HAR_Total": 480.0, "SAR": 2.99, "RSC": 0.14, "Na%": 37.85 }, "geometry": { "type": "Point", "coordinates": [ 77.736111, 9.971111 ] } },
{ "type": "Feature", "properties": { "Well No": "21033D", "Taluk": "Usilampatti", "Village": "Usilampatti", "Latitude_DD": 9.959722, "Longitude_DD": 77.791667, "Total_Samples": 26, "TDS": 1800.12, "EC_GEN": 3038.08, "pH_GEN": 8.1, "F": 1.26, "NO2+NO3": 63.58, "HAR_Total": 895.96, "SAR": 4.32, "RSC": 0.0, "Na%": 43.27 }, "geometry": { "type": "Point", "coordinates": [ 77.791667, 9.959722 ] } },
{ "type": "Feature", "properties": { "Well No": "21034D", "Taluk": "Melur", "Village": "Chittampatti", "Latitude_DD": 10.0, "Longitude_DD": 78.275, "Total_Samples": 10, "TDS": 779.1, "EC_GEN": 1348.0, "pH_GEN": 7.95, "F": 0.56, "NO2+NO3": 21.9, "HAR_Total": 388.0, "SAR": 2.99, "RSC": 0.2, "Na%": 38.12 }, "geometry": { "type": "Point", "coordinates": [ 78.275, 10.0 ] } },
{ "type": "Feature", "properties": { "Well No": "21035D", "Taluk": "Madurai North", "Village": "Madurai North", "Latitude_DD": 9.843056, "Longitude_DD": 78.141667, "Total_Samples": 26, "TDS": 1536.27, "EC_GEN": 2612.31, "pH_GEN": 8.15, "F": 0.73, "NO2+NO3": 31.15, "HAR_Total": 545.77, "SAR": 6.92, "RSC": 1.59, "Na%": 57.47 }, "geometry": { "type": "Point", "coordinates": [ 78.141667, 9.843056 ] } },
{ "type": "Feature", "properties": { "Well No": "21036D", "Taluk": "Madurai North", "Village": "Koolapandi", "Latitude_DD": 10.008333, "Longitude_DD": 78.147222, "Total_Samples": 19, "TDS": 449.0, "EC_GEN": 812.63, "pH_GEN": 8.02, "F": 1.13, "NO2+NO3": 7.22, "HAR_Total": 287.37, "SAR": 1.53, "RSC": 0.11, "Na%": 31.17 }, "geometry": { "type": "Point", "coordinates": [ 78.147222, 10.008333 ] } },
{ "type": "Feature", "properties": { "Well No": "21037D", "Taluk": "Thirumangalam", "Village": "Kandai", "Latitude_DD": 9.877778, "Longitude_DD": 77.913333, "Total_Samples": 25, "TDS": 785.2, "EC_GEN": 1370.8, "pH_GEN": 8.11, "F": 1.15, "NO2+NO3": 21.0, "HAR_Total": 356.4, "SAR": 3.33, "RSC": 0.41, "Na%": 43.14 }, "geometry": { "type": "Point", "coordinates": [ 77.913333, 9.877778 ] } },
{ "type": "Feature", "properties": { "Well No": "21038", "Taluk": "Vadipatti", "Village": "Saranthangi", "Latitude_DD": 10.100556, "Longitude_DD": 78.151944, "Total_Samples": 1, "TDS": 462.0, "EC_GEN": 890.0, "pH_GEN": 8.2, "F": 0.68, "NO2+NO3": 7.0, "HAR_Total": 305.0, "SAR": 1.54, "RSC": 0.0, "Na%": 30.32 }, "geometry": { "type": "Point", "coordinates": [ 78.151944, 10.100556 ] } },
{ "type": "Feature", "properties": { "Well No": "21039", "Taluk": "Usilampatti", "Village": "K.nattarpatti", "Latitude_DD": 9.968889, "Longitude_DD": 77.863611, "Total_Samples": 3, "TDS": 645.33, "EC_GEN": 1163.33, "pH_GEN": 8.13, "F": 1.05, "NO2+NO3": 13.0, "HAR_Total": 401.67, "SAR": 1.94, "RSC": 0.0, "Na%": 33.29 }, "geometry": { "type": "Point", "coordinates": [ 77.863611, 9.968889 ] } },
{ "type": "Feature", "properties": { "Well No": "21040", "Taluk": "Peraiyur", "Village": "T.kallipatti", "Latitude_DD": 9.715833, "Longitude_DD": 77.859444, "Total_Samples": 8, "TDS": 637.5, "EC_GEN": 1060.62, "pH_GEN": 8.06, "F": 1.09, "NO2+NO3": 13.5, "HAR_Total": 359.38, "SAR": 1.42, "RSC": 0.09, "Na%": 31.63 }, "geometry": { "type": "Point", "coordinates": [ 77.859444, 9.715833 ] } },
{ "type": "Feature", "properties": { "Well No": "21041", "Taluk": "Peraiyur", "Village": "Sedapatti", "Latitude_DD": 9.826389, "Longitude_DD": 77.8, "Total_Samples": 8, "TDS": 567.25, "EC_GEN": 977.5, "pH_GEN": 8.07, "F": 1.01, "NO2+NO3": 7.38, "HAR_Total": 239.38, "SAR": 2.88, "RSC": 0.59, "Na%": 42.2 }, "geometry": { "type": "Point", "coordinates": [ 77.8, 9.826389 ] } },
{ "type": "Feature", "properties": { "Well No": "21043", "Taluk": "Usilampatti", "Village": "Pullaneri", "Latitude_DD": 9.9325, "Longitude_DD": 77.946667, "Total_Samples": 6, "TDS": 1002.0, "EC_GEN": 1536.67, "pH_GEN": 8.17, "F": 0.51, "NO2+NO3": 11.0, "HAR_Total": 608.33, "SAR": 1.82, "RSC": 0.0, "Na%": 32.13 }, "geometry": { "type": "Point", "coordinates": [ 77.946667, 9.9325 ] } },
{ "type": "Feature", "properties": { "Well No": "21044", "Taluk": "Usilampatti", "Village": "Sangampatti", "Latitude_DD": 9.948333, "Longitude_DD": 77.898333, "Total_Samples": 6, "TDS": 1202.17, "EC_GEN": 1796.67, "pH_GEN": 8.1, "F": 0.85, "NO2+NO3": 13.0, "HAR_Total": 505.83, "SAR": 4.0, "RSC": 0.0, "Na%": 50.06 }, "geometry": { "type": "Point", "coordinates": [ 77.898333, 9.948333 ] } },
{ "type": "Feature", "properties": { "Well No": "21046", "Taluk": "Peraiyur", "Village": "Perungamanallur", "Latitude_DD": 9.7912, "Longitude_DD": 77.7731, "Total_Samples": 5, "TDS": 768.8, "EC_GEN": 1220.0, "pH_GEN": 8.08, "F": 1.53, "NO2+NO3": 8.01, "HAR_Total": 232.0, "SAR": 3.82, "RSC": 0.55, "Na%": 64.34 }, "geometry": { "type": "Point", "coordinates": [ 77.7731, 9.7912 ] } },
{ "type": "Feature", "properties": { "Well No": "21048", "Taluk": "Peraiyur", "Village": "Pappanaickenpatti", "Latitude_DD": 9.820278, "Longitude_DD": 77.711111, "Total_Samples": 4, "TDS": 1154.75, "EC_GEN": 1455.0, "pH_GEN": 8.22, "F": 0.6, "NO2+NO3": 13.0, "HAR_Total": 376.25, "SAR": 3.82, "RSC": 2.93, "Na%": 49.14 }, "geometry": { "type": "Point", "coordinates": [ 77.711111, 9.820278 ] } },
{ "type": "Feature", "properties": { "Well No": "21050", "Taluk": "Peraiyur", "Village": "Mathippanur", "Latitude_DD": 9.795556, "Longitude_DD": 77.8375, "Total_Samples": 8, "TDS": 595.25, "EC_GEN": 957.5, "pH_GEN": 8.11, "F": 0.79, "NO2+NO3": 8.12, "HAR_Total": 306.25, "SAR": 1.75, "RSC": 0.26, "Na%": 37.9 }, "geometry": { "type": "Point", "coordinates": [ 77.8375, 9.795556 ] } },
{ "type": "Feature", "properties": { "Well No": "21052", "Taluk": "Peraiyur", "Village": "Muthunayakkapuram", "Latitude_DD": 9.771389, "Longitude_DD": 77.812222, "Total_Samples": 8, "TDS": 484.62, "EC_GEN": 815.0, "pH_GEN": 8.07, "F": 0.96, "NO2+NO3": 8.5, "HAR_Total": 207.5, "SAR": 2.78, "RSC": 0.63, "Na%": 50.28 }, "geometry": { "type": "Point", "coordinates": [ 77.812222, 9.771389 ] } },
{ "type": "Feature", "properties": { "Well No": "21056", "Taluk": "Usilampatti", "Village": "Meikilarpatti", "Latitude_DD": 9.980556, "Longitude_DD": 77.802778, "Total_Samples": 6, "TDS": 1067.5, "EC_GEN": 1521.67, "pH_GEN": 8.33, "F": 0.34, "NO2+NO3": 32.33, "HAR_Total": 433.33, "SAR": 3.09, "RSC": 0.0, "Na%": 40.47 }, "geometry": { "type": "Point", "coordinates": [ 77.802778, 9.980556 ] } },
{ "type": "Feature", "properties": { "Well No": "21057", "Taluk": "Usilampatti", "Village": "Panamooppanpatti", "Latitude_DD": 10.137222, "Longitude_DD": 78.3625, "Total_Samples": 1, "TDS": 422.0, "EC_GEN": 750.0, "pH_GEN": 8.6, "F": 0.49, "NO2+NO3": 8.0, "HAR_Total": 195.0, "SAR": 2.43, "RSC": 0.52, "Na%": 44.52 }, "geometry": { "type": "Point", "coordinates": [ 78.3625, 10.137222 ] } },
{ "type": "Feature", "properties": { "Well No": "21059", "Taluk": "Vadipatti", "Village": "Kadupatti", "Latitude_DD": 10.022222, "Longitude_DD": 77.92, "Total_Samples": 8, "TDS": 549.75, "EC_GEN": 912.5, "pH_GEN": 8.06, "F": 0.93, "NO2+NO3": 12.81, "HAR_Total": 273.12, "SAR": 2.07, "RSC": 0.04, "Na%": 37.27 }, "geometry": { "type": "Point", "coordinates": [ 77.92, 10.022222 ] } },
{ "type": "Feature", "properties": { "Well No": "21061", "Taluk": "Vadipatti", "Village": "Thathampatti", "Latitude_DD": 10.022222, "Longitude_DD": 78.015556, "Total_Samples": 8, "TDS": 399.75, "EC_GEN": 690.62, "pH_GEN": 7.98, "F": 0.61, "NO2+NO3": 4.81, "HAR_Total": 250.0, "SAR": 1.19, "RSC": 0.0, "Na%": 32.01 }, "geometry": { "type": "Point", "coordinates": [ 78.015556, 10.022222 ] } },
{ "type": "Feature", "properties": { "Well No": "21062", "Taluk": "Vadipatti", "Village": "Periailandakulam", "Latitude_DD": 10.068333, "Longitude_DD": 78.051389, "Total_Samples": 8, "TDS": 368.12, "EC_GEN": 665.0, "pH_GEN": 8.02, "F": 1.17, "NO2+NO3": 4.38, "HAR_Total": 264.38, "SAR": 0.86, "RSC": 0.04, "Na%": 23.53 }, "geometry": { "type": "Point", "coordinates": [ 78.051389, 10.068333 ] } },
{ "type": "Feature", "properties": { "Well No": "21063", "Taluk": "Madurai North", "Village": "Erukkalanatham", "Latitude_DD": 9.957, "Longitude_DD": 78.083, "Total_Samples": 5, "TDS": 442.0, "EC_GEN": 727.0, "pH_GEN": 7.96, "F": 0.86, "NO2+NO3": 3.6, "HAR_Total": 253.0, "SAR": 1.34, "RSC": 0.14, "Na%": 36.49 }, "geometry": { "type": "Point", "coordinates": [ 78.083, 9.957 ] } },
{ "type": "Feature", "properties": { "Well No": "21065", "Taluk": "Madurai North", "Village": "Mangulam", "Latitude_DD": 10.035833, "Longitude_DD": 78.25, "Total_Samples": 8, "TDS": 648.88, "EC_GEN": 1084.38, "pH_GEN": 8.02, "F": 0.86, "NO2+NO3": 6.5, "HAR_Total": 273.75, "SAR": 2.87, "RSC": 0.07, "Na%": 46.97 }, "geometry": { "type": "Point", "coordinates": [ 78.25, 10.035833 ] } },
{ "type": "Feature", "properties": { "Well No": "21066", "Taluk": "Melur", "Village": "Attukulam", "Latitude_DD": 10.0025, "Longitude_DD": 78.356667, "Total_Samples": 8, "TDS": 802.5, "EC_GEN": 1173.75, "pH_GEN": 8.1, "F": 0.83, "NO2+NO3": 16.62, "HAR_Total": 354.38, "SAR": 2.64, "RSC": 0.08, "Na%": 44.04 }, "geometry": { "type": "Point", "coordinates": [ 78.356667, 10.0025 ] } },
{ "type": "Feature", "properties": { "Well No": "21068", "Taluk": "Vadipatti", "Village": "Alanganallur", "Latitude_DD": 10.048333, "Longitude_DD": 78.083889, "Total_Samples": 11, "TDS": 875.82, "EC_GEN": 1437.73, "pH_GEN": 8.08, "F": 0.37, "NO2+NO3": 21.45, "HAR_Total": 513.18, "SAR": 1.75, "RSC": 0.0, "Na%": 29.04 }, "geometry": { "type": "Point", "coordinates": [ 78.083889, 10.048333 ] } },
{ "type": "Feature", "properties": { "Well No": "21069", "Taluk": "Vadipatti", "Village": "Maduvarpatti", "Latitude_DD": 10.080139, "Longitude_DD": 78.124722, "Total_Samples": 7, "TDS": 1388.14, "EC_GEN": 1834.29, "pH_GEN": 8.03, "F": 0.3, "NO2+NO3": 48.86, "HAR_Total": 867.14, "SAR": 1.81, "RSC": 0.0, "Na%": 24.46 }, "geometry": { "type": "Point", "coordinates": [ 78.124722, 10.080139 ] } },
{ "type": "Feature", "properties": { "Well No": "21071", "Taluk": "Melur", "Village": "Pottapatty", "Latitude_DD": 10.281944, "Longitude_DD": 78.370556, "Total_Samples": 5, "TDS": 533.2, "EC_GEN": 840.0, "pH_GEN": 8.0, "F": 1.18, "NO2+NO3": 7.6, "HAR_Total": 324.0, "SAR": 1.31, "RSC": 0.12, "Na%": 34.99 }, "geometry": { "type": "Point", "coordinates": [ 78.370556, 10.281944 ] } },
{ "type": "Feature", "properties": { "Well No": "21074", "Taluk": "Madurai North", "Village": "Chettikulam", "Latitude_DD": 9.995, "Longitude_DD": 78.146944, "Total_Samples": 8, "TDS": 943.75, "EC_GEN": 1503.75, "pH_GEN": 8.16, "F": 0.9, "NO2+NO3": 23.5, "HAR_Total": 450.62, "SAR": 2.73, "RSC": 0.14, "Na%": 45.53 }, "geometry": { "type": "Point", "coordinates": [ 78.146944, 9.995 ] } },
{ "type": "Feature", "properties": { "Well No": "21075", "Taluk": "Madurai North", "Village": "Chatrapatti", "Latitude_DD": 10.03, "Longitude_DD": 78.15, "Total_Samples": 2, "TDS": 308.0, "EC_GEN": 590.0, "pH_GEN": 8.05, "F": 0.96, "NO2+NO3": 1.5, "HAR_Total": 195.0, "SAR": 1.43, "RSC": 0.0, "Na%": 33.68 }, "geometry": { "type": "Point", "coordinates": [ 78.15, 10.03 ] } },
{ "type": "Feature", "properties": { "Well No": "21076", "Taluk": "Madurai North", "Village": "Vayalur", "Latitude_DD": 10.018333, "Longitude_DD": 78.053889, "Total_Samples": 8, "TDS": 478.88, "EC_GEN": 681.88, "pH_GEN": 8.04, "F": 1.1, "NO2+NO3": 2.62, "HAR_Total": 263.75, "SAR": 2.45, "RSC": 0.66, "Na%": 43.85 }, "geometry": { "type": "Point", "coordinates": [ 78.053889, 10.018333 ] } },
{ "type": "Feature", "properties": { "Well No": "21077", "Taluk": "Madurai North", "Village": "Elangiyendal", "Latitude_DD": 9.976, "Longitude_DD": 78.163, "Total_Samples": 5, "TDS": 818.6, "EC_GEN": 1178.0, "pH_GEN": 8.14, "F": 1.17, "NO2+NO3": 9.2, "HAR_Total": 283.0, "SAR": 5.69, "RSC": 2.62, "Na%": 67.56 }, "geometry": { "type": "Point", "coordinates": [ 78.163, 9.976 ] } },
{ "type": "Feature", "properties": { "Well No": "21078", "Taluk": "Madurai North", "Village": "Kalikappan", "Latitude_DD": 9.939444, "Longitude_DD": 78.193611, "Total_Samples": 8, "TDS": 436.62, "EC_GEN": 704.38, "pH_GEN": 8.04, "F": 0.94, "NO2+NO3": 8.5, "HAR_Total": 230.0, "SAR": 1.59, "RSC": 0.0, "Na%": 40.44 }, "geometry": { "type": "Point", "coordinates": [ 78.193611, 9.939444 ] } },
{ "type": "Feature", "properties": { "Well No": "21079", "Taluk": "Madurai North", "Village": "Rajakkur", "Latitude_DD": 9.928611, "Longitude_DD": 78.238333, "Total_Samples": 8, "TDS": 947.88, "EC_GEN": 1606.88, "pH_GEN": 8.26, "F": 0.75, "NO2+NO3": 1.64, "HAR_Total": 145.62, "SAR": 13.24, "RSC": 6.99, "Na%": 86.69 }, "geometry": { "type": "Point", "coordinates": [ 78.238333, 9.928611 ] } },
{ "type": "Feature", "properties": { "Well No": "21080", "Taluk": "Madurai North", "Village": "Kalimangalam", "Latitude_DD": 9.878333, "Longitude_DD": 78.238889, "Total_Samples": 8, "TDS": 2022.88, "EC_GEN": 3416.25, "pH_GEN": 8.62, "F": 1.6, "NO2+NO3": 6.75, "HAR_Total": 405.0, "SAR": 17.55, "RSC": 8.93, "Na%": 78.89 }, "geometry": { "type": "Point", "coordinates": [ 78.238889, 9.878333 ] } },
{ "type": "Feature", "properties": { "Well No": "21081", "Taluk": "Madurai North", "Village": "Elamanur", "Latitude_DD": 9.900556, "Longitude_DD": 78.210833, "Total_Samples": 8, "TDS": 1527.0, "EC_GEN": 2480.62, "pH_GEN": 8.17, "F": 0.69, "NO2+NO3": 13.62, "HAR_Total": 745.0, "SAR": 3.07, "RSC": 0.0, "Na%": 42.55 }, "geometry": { "type": "Point", "coordinates": [ 78.210833, 9.900556 ] } },
{ "type": "Feature", "properties": { "Well No": "21082", "Taluk": "Madurai South", "Village": "Nallur", "Latitude_DD": 9.788333, "Longitude_DD": 78.133333, "Total_Samples": 8, "TDS": 434.88, "EC_GEN": 733.75, "pH_GEN": 8.15, "F": 0.55, "NO2+NO3": 4.5, "HAR_Total": 261.88, "SAR": 1.32, "RSC": 0.09, "Na%": 30.42 }, "geometry": { "type": "Point", "coordinates": [ 78.133333, 9.788333 ] } },
{ "type": "Feature", "properties": { "Well No": "21083", "Taluk": "Madurai South", "Village": "Nilaiyur", "Latitude_DD": 9.855556, "Longitude_DD": 78.059167, "Total_Samples": 8, "TDS": 1322.88, "EC_GEN": 2079.38, "pH_GEN": 8.04, "F": 0.83, "NO2+NO3": 16.5, "HAR_Total": 599.38, "SAR": 3.21, "RSC": 0.0, "Na%": 44.93 }, "geometry": { "type": "Point", "coordinates": [ 78.059167, 9.855556 ] } },
{ "type": "Feature", "properties": { "Well No": "21084", "Taluk": "Madurai South", "Village": "Sakkilipatti", "Latitude_DD": 9.901389, "Longitude_DD": 78.011111, "Total_Samples": 8, "TDS": 605.75, "EC_GEN": 960.0, "pH_GEN": 8.12, "F": 0.93, "NO2+NO3": 6.12, "HAR_Total": 308.12, "SAR": 2.03, "RSC": 0.0, "Na%": 42.78 }, "geometry": { "type": "Point", "coordinates": [ 78.011111, 9.901389 ] } },
{ "type": "Feature", "properties": { "Well No": "501001", "Taluk": "Madurai North", "Village": "Oomatchikulam", "Latitude_DD": 10.005, "Longitude_DD": 78.148056, "Total_Samples": 13, "TDS": 923.08, "EC_GEN": 1250.0, "pH_GEN": 8.11, "F": 1.25, "NO2+NO3": 11.93, "HAR_Total": 391.54, "SAR": 1.89, "RSC": 0.0, "Na%": 36.4 }, "geometry": { "type": "Point", "coordinates": [ 78.148056, 10.005 ] } },
{ "type": "Feature", "properties": { "Well No": "501002", "Taluk": "Vadipatti", "Village": "Thanichiyam", "Latitude_DD": 10.041111, "Longitude_DD": 78.010556, "Total_Samples": 2, "TDS": 457.0, "EC_GEN": 860.0, "pH_GEN": 8.1, "F": 0.85, "NO2+NO3": 7.0, "HAR_Total": 337.5, "SAR": 1.0, "RSC": 0.0, "Na%": 20.83 }, "geometry": { "type": "Point", "coordinates": [ 78.010556, 10.041111 ] } },
{ "type": "Feature", "properties": { "Well No": "501003", "Taluk": "Madurai North", "Village": "Varichiyur", "Latitude_DD": 9.913056, "Longitude_DD": 78.251111, "Total_Samples": 12, "TDS": 942.25, "EC_GEN": 1688.33, "pH_GEN": 8.08, "F": 0.69, "NO2+NO3": 4.42, "HAR_Total": 418.33, "SAR": 3.62, "RSC": 0.36, "Na%": 45.13 }, "geometry": { "type": "Point", "coordinates": [ 78.251111, 9.913056 ] } },
{ "type": "Feature", "properties": { "Well No": "501004", "Taluk": "Madurai North", "Village": "Sakkudi", "Latitude_DD": 9.864167, "Longitude_DD": 78.223611, "Total_Samples": 13, "TDS": 980.46, "EC_GEN": 1601.15, "pH_GEN": 8.17, "F": 0.52, "NO2+NO3": 9.69, "HAR_Total": 358.08, "SAR": 4.19, "RSC": 1.58, "Na%": 55.73 }, "geometry": { "type": "Point", "coordinates": [ 78.223611, 9.864167 ] } },
{ "type": "Feature", "properties": { "Well No": "501005", "Taluk": "Madurai North", "Village": "Chithakur", "Latitude_DD": 9.948333, "Longitude_DD": 78.243611, "Total_Samples": 12, "TDS": 768.92, "EC_GEN": 1274.58, "pH_GEN": 8.12, "F": 1.11, "NO2+NO3": 6.26, "HAR_Total": 262.5, "SAR": 5.42, "RSC": 2.42, "Na%": 61.85 }, "geometry": { "type": "Point", "coordinates": [ 78.243611, 9.948333 ] } },
{ "type": "Feature", "properties": { "Well No": "501006", "Taluk": "Madurai North", "Village": "Poikaraipatti", "Latitude_DD": 10.047222, "Longitude_DD": 78.202778, "Total_Samples": 7, "TDS": 886.0, "EC_GEN": 1590.0, "pH_GEN": 7.94, "F": 0.66, "NO2+NO3": 7.71, "HAR_Total": 480.71, "SAR": 2.9, "RSC": 0.0, "Na%": 38.07 }, "geometry": { "type": "Point", "coordinates": [ 78.202778, 10.047222 ] } },
{ "type": "Feature", "properties": { "Well No": "501007", "Taluk": "Madurai North", "Village": "Velliankundram", "Latitude_DD": 10.020556, "Longitude_DD": 78.178333, "Total_Samples": 13, "TDS": 655.46, "EC_GEN": 1088.46, "pH_GEN": 8.02, "F": 0.54, "NO2+NO3": 6.31, "HAR_Total": 323.85, "SAR": 2.87, "RSC": 0.32, "Na%": 46.81 }, "geometry": { "type": "Point", "coordinates": [ 78.178333, 10.020556 ] } },
{ "type": "Feature", "properties": { "Well No": "501009", "Taluk": "Thirumangalam", "Village": "Maravankulam", "Latitude_DD": 9.831389, "Longitude_DD": 78.003056, "Total_Samples": 4, "TDS": 869.5, "EC_GEN": 1415.0, "pH_GEN": 8.05, "F": 0.62, "NO2+NO3": 11.25, "HAR_Total": 388.75, "SAR": 2.94, "RSC": 0.4, "Na%": 41.48 }, "geometry": { "type": "Point", "coordinates": [ 78.003056, 9.831389 ] } },
{ "type": "Feature", "properties": { "Well No": "501011", "Taluk": "Madurai South", "Village": "Melakuyilkudi", "Latitude_DD": 9.9225, "Longitude_DD": 78.036111, "Total_Samples": 10, "TDS": 960.4, "EC_GEN": 1543.6, "pH_GEN": 8.05, "F": 1.31, "NO2+NO3": 7.8, "HAR_Total": 326.5, "SAR": 4.55, "RSC": 0.34, "Na%": 60.25 }, "geometry": { "type": "Point", "coordinates": [ 78.036111, 9.9225 ] } },
{ "type": "Feature", "properties": { "Well No": "501012", "Taluk": "Madurai South", "Village": "Vilacherry", "Latitude_DD": 9.9, "Longitude_DD": 78.059444, "Total_Samples": 13, "TDS": 584.92, "EC_GEN": 983.85, "pH_GEN": 8.05, "F": 0.9, "NO2+NO3": 7.62, "HAR_Total": 300.0, "SAR": 1.89, "RSC": 0.0, "Na%": 34.04 }, "geometry": { "type": "Point", "coordinates": [ 78.059444, 9.9 ] } },
{ "type": "Feature", "properties": { "Well No": "501013", "Taluk": "Melur", "Village": "Veppaodappu", "Latitude_DD": 9.917222, "Longitude_DD": 78.303889, "Total_Samples": 13, "TDS": 626.69, "EC_GEN": 1030.0, "pH_GEN": 8.04, "F": 0.8, "NO2+NO3": 12.08, "HAR_Total": 326.15, "SAR": 2.1, "RSC": 0.0, "Na%": 37.76 }, "geometry": { "type": "Point", "coordinates": [ 78.303889, 9.917222 ] } },
{ "type": "Feature", "properties": { "Well No": "501014", "Taluk": "Melur", "Village": "Ambalakkaranpatti", "Latitude_DD": 9.972222, "Longitude_DD": 78.394722, "Total_Samples": 2, "TDS": 1922.0, "EC_GEN": 3250.0, "pH_GEN": 8.15, "F": 0.7, "NO2+NO3": 47.0, "HAR_Total": 810.0, "SAR": 5.75, "RSC": 0.0, "Na%": 49.23 }, "geometry": { "type": "Point", "coordinates": [ 78.394722, 9.972222 ] } },
{ "type": "Feature", "properties": { "Well No": "501015", "Taluk": "Melur", "Village": "Kuruchipatti", "Latitude_DD": 10.0842, "Longitude_DD": 78.3583, "Total_Samples": 1, "TDS": 1446.0, "EC_GEN": 2540.0, "pH_GEN": 8.8, "F": 0.67, "NO2+NO3": 6.0, "HAR_Total": 490.0, "SAR": 6.43, "RSC": 0.0, "Na%": 55.23 }, "geometry": { "type": "Point", "coordinates": [ 78.3583, 10.0842 ] } },
{ "type": "Feature", "properties": { "Well No": "501016", "Taluk": "Melur", "Village": "Navinipatti", "Latitude_DD": 10.043889, "Longitude_DD": 78.362778, "Total_Samples": 13, "TDS": 599.0, "EC_GEN": 990.0, "pH_GEN": 8.11, "F": 0.45, "NO2+NO3": 11.32, "HAR_Total": 305.38, "SAR": 2.16, "RSC": 0.0, "Na%": 36.04 }, "geometry": { "type": "Point", "coordinates": [ 78.362778, 10.043889 ] } },
{ "type": "Feature", "properties": { "Well No": "501017", "Taluk": "Melur", "Village": "Keelaiyur", "Latitude_DD": 10.047222, "Longitude_DD": 78.377778, "Total_Samples": 10, "TDS": 916.8, "EC_GEN": 1520.0, "pH_GEN": 8.08, "F": 0.56, "NO2+NO3": 10.4, "HAR_Total": 390.5, "SAR": 2.81, "RSC": 0.02, "Na%": 39.9 }, "geometry": { "type": "Point", "coordinates": [ 78.377778, 10.047222 ] } },
{ "type": "Feature", "properties": { "Well No": "501018", "Taluk": "Melur", "Village": "Manappacheri", "Latitude_DD": 10.217222, "Longitude_DD": 78.350278, "Total_Samples": 1, "TDS": 1260.0, "EC_GEN": 2260.0, "pH_GEN": 8.2, "F": 1.04, "NO2+NO3": 2.0, "HAR_Total": 570.0, "SAR": 5.03, "RSC": 0.0, "Na%": 51.09 }, "geometry": { "type": "Point", "coordinates": [ 78.350278, 10.217222 ] } },
{ "type": "Feature", "properties": { "Well No": "501019", "Taluk": "Melur", "Village": "Kasampatti", "Latitude_DD": 10.1525, "Longitude_DD": 78.299722, "Total_Samples": 4, "TDS": 677.25, "EC_GEN": 965.0, "pH_GEN": 8.12, "F": 0.3, "NO2+NO3": 17.75, "HAR_Total": 417.5, "SAR": 1.52, "RSC": 0.5, "Na%": 29.91 }, "geometry": { "type": "Point", "coordinates": [ 78.299722, 10.1525 ] } },
{ "type": "Feature", "properties": { "Well No": "501020", "Taluk": "Melur", "Village": "Sennagarampatti", "Latitude_DD": 10.080556, "Longitude_DD": 78.320278, "Total_Samples": 10, "TDS": 465.9, "EC_GEN": 778.5, "pH_GEN": 8.01, "F": 0.5, "NO2+NO3": 8.6, "HAR_Total": 227.5, "SAR": 1.99, "RSC": 0.4, "Na%": 37.36 }, "geometry": { "type": "Point", "coordinates": [ 78.320278, 10.080556 ] } },
{ "type": "Feature", "properties": { "Well No": "501023", "Taluk": "Peraiyur", "Village": "Mangalrev", "Latitude_DD": 9.786111, "Longitude_DD": 77.797222, "Total_Samples": 13, "TDS": 482.92, "EC_GEN": 806.54, "pH_GEN": 8.08, "F": 1.04, "NO2+NO3": 7.78, "HAR_Total": 208.46, "SAR": 2.71, "RSC": 0.44, "Na%": 49.75 }, "geometry": { "type": "Point", "coordinates": [ 77.797222, 9.786111 ] } },
{ "type": "Feature", "properties": { "Well No": "501028", "Taluk": "Peraiyur", "Village": "Athanur", "Latitude_DD": 9.725, "Longitude_DD": 77.895556, "Total_Samples": 9, "TDS": 715.67, "EC_GEN": 1147.78, "pH_GEN": 8.1, "F": 1.05, "NO2+NO3": 10.33, "HAR_Total": 305.56, "SAR": 2.77, "RSC": 1.35, "Na%": 49.84 }, "geometry": { "type": "Point", "coordinates": [ 77.895556, 9.725 ] } },
{ "type": "Feature", "properties": { "Well No": "501030", "Taluk": "Peraiyur", "Village": "Mothagam", "Latitude_DD": 9.679167, "Longitude_DD": 77.808889, "Total_Samples": 12, "TDS": 1618.58, "EC_GEN": 2481.67, "pH_GEN": 8.21, "F": 0.38, "NO2+NO3": 26.33, "HAR_Total": 457.5, "SAR": 5.9, "RSC": 1.26, "Na%": 55.58 }, "geometry": { "type": "Point", "coordinates": [ 77.808889, 9.679167 ] } },
{ "type": "Feature", "properties": { "Well No": "501032", "Taluk": "Peraiyur", "Village": "Salichanthai", "Latitude_DD": 9.728333, "Longitude_DD": 77.801944, "Total_Samples": 13, "TDS": 1961.38, "EC_GEN": 3088.46, "pH_GEN": 8.15, "F": 0.45, "NO2+NO3": 7.85, "HAR_Total": 727.69, "SAR": 4.79, "RSC": 0.21, "Na%": 48.24 }, "geometry": { "type": "Point", "coordinates": [ 77.801944, 9.728333 ] } },
{ "type": "Feature", "properties": { "Well No": "501033", "Taluk": "Madurai North", "Village": "Samayanallur", "Latitude_DD": 9.980833, "Longitude_DD": 78.042222, "Total_Samples": 13, "TDS": 1178.69, "EC_GEN": 1976.92, "pH_GEN": 8.24, "F": 1.0, "NO2+NO3": 2.7, "HAR_Total": 328.08, "SAR": 7.44, "RSC": 4.49, "Na%": 70.38 }, "geometry": { "type": "Point", "coordinates": [ 78.042222, 9.980833 ] } },
{ "type": "Feature", "properties": { "Well No": "501035", "Taluk": "Madurai South", "Village": "Nedunkulam", "Latitude_DD": 9.787222, "Longitude_DD": 78.178056, "Total_Samples": 8, "TDS": 1301.62, "EC_GEN": 2153.12, "pH_GEN": 8.0, "F": 1.17, "NO2+NO3": 23.38, "HAR_Total": 521.25, "SAR": 4.89, "RSC": 0.29, "Na%": 53.91 }, "geometry": { "type": "Point", "coordinates": [ 78.178056, 9.787222 ] } },
{ "type": "Feature", "properties": { "Well No": "501036", "Taluk": "Madurai South", "Village": "Othai Alangulam", "Latitude_DD": 9.809722, "Longitude_DD": 78.055, "Total_Samples": 12, "TDS": 2907.83, "EC_GEN": 4790.83, "pH_GEN": 8.06, "F": 0.95, "NO2+NO3": 31.33, "HAR_Total": 1602.92, "SAR": 4.28, "RSC": 0.12, "Na%": 41.04 }, "geometry": { "type": "Point", "coordinates": [ 78.055, 9.809722 ] } },
{ "type": "Feature", "properties": { "Well No": "501037", "Taluk": "Thirumangalam", "Village": "Mykudi", "Latitude_DD": 9.787778, "Longitude_DD": 78.016667, "Total_Samples": 11, "TDS": 2691.45, "EC_GEN": 4019.09, "pH_GEN": 8.35, "F": 0.83, "NO2+NO3": 6.45, "HAR_Total": 765.91, "SAR": 8.39, "RSC": 0.09, "Na%": 54.94 }, "geometry": { "type": "Point", "coordinates": [ 78.016667, 9.787778 ] } },
{ "type": "Feature", "properties": { "Well No": "501043", "Taluk": "Thirumangalam", "Village": "Sivarakottai", "Latitude_DD": 9.744722, "Longitude_DD": 77.98, "Total_Samples": 5, "TDS": 537.2, "EC_GEN": 829.0, "pH_GEN": 8.08, "F": 1.39, "NO2+NO3": 5.8, "HAR_Total": 183.0, "SAR": 4.08, "RSC": 3.41, "Na%": 60.91 }, "geometry": { "type": "Point", "coordinates": [ 77.98, 9.744722 ] } },
{ "type": "Feature", "properties": { "Well No": "501046", "Taluk": "Peraiyur", "Village": "Chellampatti", "Latitude_DD": 9.972, "Longitude_DD": 77.874, "Total_Samples": 2, "TDS": 528.5, "EC_GEN": 990.0, "pH_GEN": 8.0, "F": 1.36, "NO2+NO3": 3.0, "HAR_Total": 277.5, "SAR": 2.63, "RSC": 1.3, "Na%": 42.2 }, "geometry": { "type": "Point", "coordinates": [ 77.874, 9.972 ] } },
{ "type": "Feature", "properties": { "Well No": "501050", "Taluk": "Usilampatti", "Village": "Thumbalapatti", "Latitude_DD": 9.869444, "Longitude_DD": 77.776111, "Total_Samples": 10, "TDS": 556.7, "EC_GEN": 973.5, "pH_GEN": 8.05, "F": 0.71, "NO2+NO3": 10.0, "HAR_Total": 282.5, "SAR": 2.09, "RSC": 0.13, "Na%": 33.3 }, "geometry": { "type": "Point", "coordinates": [ 77.776111, 9.869444 ] } },
{ "type": "Feature", "properties": { "Well No": "501053", "Taluk": "Vadipatti", "Village": "Alagapuri", "Latitude_DD": 10.056389, "Longitude_DD": 78.069722, "Total_Samples": 12, "TDS": 587.33, "EC_GEN": 1065.0, "pH_GEN": 8.1, "F": 0.8, "NO2+NO3": 5.67, "HAR_Total": 365.42, "SAR": 1.68, "RSC": 0.34, "Na%": 33.02 }, "geometry": { "type": "Point", "coordinates": [ 78.069722, 10.056389 ] } },
{ "type": "Feature", "properties": { "Well No": "501054", "Taluk": "Vadipatti", "Village": "Manickampatti", "Latitude_DD": 10.104444, "Longitude_DD": 78.125278, "Total_Samples": 7, "TDS": 1290.29, "EC_GEN": 2291.43, "pH_GEN": 8.14, "F": 0.72, "NO2+NO3": 22.43, "HAR_Total": 657.14, "SAR": 3.82, "RSC": 0.0, "Na%": 42.31 }, "geometry": { "type": "Point", "coordinates": [ 78.125278, 10.104444 ] } },
{ "type": "Feature", "properties": { "Well No": "501060", "Taluk": "Vadipatti", "Village": "Thiruvalavoinallur", "Latitude_DD": 10.008056, "Longitude_DD": 78.008611, "Total_Samples": 9, "TDS": 877.11, "EC_GEN": 1475.0, "pH_GEN": 8.16, "F": 0.77, "NO2+NO3": 11.23, "HAR_Total": 377.22, "SAR": 3.56, "RSC": 0.18, "Na%": 43.87 }, "geometry": { "type": "Point", "coordinates": [ 78.008611, 10.008056 ] } },
{ "type": "Feature", "properties": { "Well No": "81001B", "Taluk": "Madurai North", "Village": "Kochadai", "Latitude_DD": 9.943333, "Longitude_DD": 78.0775, "Total_Samples": 16, "TDS": 518.0, "EC_GEN": 888.75, "pH_GEN": 8.08, "F": 0.46, "NO2+NO3": 4.46, "HAR_Total": 256.88, "SAR": 2.22, "RSC": 0.27, "Na%": 45.91 }, "geometry": { "type": "Point", "coordinates": [ 78.0775, 9.943333 ] } },
{ "type": "Feature", "properties": { "Well No": "83004A", "Taluk": "Thirumangalam", "Village": "Kallikudi", "Latitude_DD": 9.7025, "Longitude_DD": 77.943333, "Total_Samples": 21, "TDS": 1443.43, "EC_GEN": 2335.71, "pH_GEN": 8.03, "F": 0.64, "NO2+NO3": 50.48, "HAR_Total": 574.76, "SAR": 4.63, "RSC": 0.34, "Na%": 44.21 }, "geometry": { "type": "Point", "coordinates": [ 77.943333, 9.7025 ] } },
{ "type": "Feature", "properties": { "Well No": "83005", "Taluk": "Madurai South", "Village": "Thiruparankundram", "Latitude_DD": 9.879167, "Longitude_DD": 78.114444, "Total_Samples": 14, "TDS": 1774.07, "EC_GEN": 2950.71, "pH_GEN": 8.11, "F": 1.0, "NO2+NO3": 10.64, "HAR_Total": 553.93, "SAR": 7.88, "RSC": 0.3, "Na%": 62.59 }, "geometry": { "type": "Point", "coordinates": [ 78.114444, 9.879167 ] } },
{ "type": "Feature", "properties": { "Well No": "83006 A", "Taluk": "Thirumangalam", "Village": "Santhangudi", "Latitude_DD": 9.84, "Longitude_DD": 77.937778, "Total_Samples": 4, "TDS": 1802.75, "EC_GEN": 3042.5, "pH_GEN": 8.15, "F": 0.86, "NO2+NO3": 38.75, "HAR_Total": 577.5, "SAR": 7.64, "RSC": 0.28, "Na%": 58.24 }, "geometry": { "type": "Point", "coordinates": [ 77.937778, 9.84 ] } },
{ "type": "Feature", "properties": { "Well No": "83006A", "Taluk": "Thirumangalam", "Village": "Sathankudi", "Latitude_DD": 9.7891, "Longitude_DD": 77.962, "Total_Samples": 12, "TDS": 1618.25, "EC_GEN": 2485.42, "pH_GEN": 8.33, "F": 1.13, "NO2+NO3": 37.0, "HAR_Total": 556.25, "SAR": 4.96, "RSC": 0.3, "Na%": 50.73 }, "geometry": { "type": "Point", "coordinates": [ 77.962, 9.7891 ] } },
{ "type": "Feature", "properties": { "Well No": "83007B", "Taluk": "Peraiyur", "Village": "Chinnakattalai", "Latitude_DD": 9.951944, "Longitude_DD": 77.800556, "Total_Samples": 16, "TDS": 2075.94, "EC_GEN": 3400.0, "pH_GEN": 8.31, "F": 1.1, "NO2+NO3": 11.19, "HAR_Total": 751.88, "SAR": 6.53, "RSC": 0.0, "Na%": 56.12 }, "geometry": { "type": "Point", "coordinates": [ 77.800556, 9.951944 ] } },
{ "type": "Feature", "properties": { "Well No": "83008", "Taluk": "Peraiyur", "Village": "Elumalai", "Latitude_DD": 9.861111, "Longitude_DD": 77.701111, "Total_Samples": 13, "TDS": 577.0, "EC_GEN": 951.54, "pH_GEN": 8.03, "F": 1.06, "NO2+NO3": 19.46, "HAR_Total": 273.08, "SAR": 2.36, "RSC": 0.0, "Na%": 43.43 }, "geometry": { "type": "Point", "coordinates": [ 77.701111, 9.861111 ] } },
{ "type": "Feature", "properties": { "Well No": "83014A", "Taluk": "Vadipatti", "Village": "Thiruvedagam", "Latitude_DD": 10.020556, "Longitude_DD": 77.963611, "Total_Samples": 4, "TDS": 746.5, "EC_GEN": 1297.5, "pH_GEN": 8.07, "F": 0.65, "NO2+NO3": 16.25, "HAR_Total": 333.75, "SAR": 3.03, "RSC": 0.07, "Na%": 43.12 }, "geometry": { "type": "Point", "coordinates": [ 77.963611, 10.020556 ] } },
{ "type": "Feature", "properties": { "Well No": "83014B", "Taluk": "Vadipatti", "Village": "Mullipallam", "Latitude_DD": 10.019444, "Longitude_DD": 77.950556, "Total_Samples": 17, "TDS": 557.95, "EC_GEN": 1010.59, "pH_GEN": 7.96, "F": 0.74, "NO2+NO3": 4.88, "HAR_Total": 269.12, "SAR": 3.1, "RSC": 0.99, "Na%": 41.46 }, "geometry": { "type": "Point", "coordinates": [ 77.950556, 10.019444 ] } },
{ "type": "Feature", "properties": { "Well No": "83016A", "Taluk": "Melur", "Village": "Chittampatti", "Latitude_DD": 9.988056, "Longitude_DD": 78.243056, "Total_Samples": 18, "TDS": 1789.89, "EC_GEN": 2886.11, "pH_GEN": 8.03, "F": 0.55, "NO2+NO3": 9.17, "HAR_Total": 650.0, "SAR": 4.81, "RSC": 1.34, "Na%": 39.35 }, "geometry": { "type": "Point", "coordinates": [ 78.243056, 9.988056 ] } },
{ "type": "Feature", "properties": { "Well No": "83020A", "Taluk": "Vadipatti", "Village": "Valayapatti", "Latitude_DD": 10.0881, "Longitude_DD": 77.9942, "Total_Samples": 4, "TDS": 648.75, "EC_GEN": 1180.0, "pH_GEN": 8.18, "F": 1.3, "NO2+NO3": 9.5, "HAR_Total": 353.75, "SAR": 2.65, "RSC": 0.25, "Na%": 40.13 }, "geometry": { "type": "Point", "coordinates": [ 77.9942, 10.0881 ] } },
{ "type": "Feature", "properties": { "Well No": "83048", "Taluk": "Thirumangalam", "Village": "Puliankulam (M)", "Latitude_DD": 9.651667, "Longitude_DD": 77.909167, "Total_Samples": 11, "TDS": 523.82, "EC_GEN": 886.36, "pH_GEN": 8.04, "F": 0.92, "NO2+NO3": 8.18, "HAR_Total": 224.55, "SAR": 2.79, "RSC": 0.83, "Na%": 49.76 }, "geometry": { "type": "Point", "coordinates": [ 77.909167, 9.651667 ] } },
{ "type": "Feature", "properties": { "Well No": "83062A", "Taluk": "Thirumangalam", "Village": "Kappalur", "Latitude_DD": 9.840278, "Longitude_DD": 78.016667, "Total_Samples": 23, "TDS": 1233.7, "EC_GEN": 2135.22, "pH_GEN": 7.95, "F": 0.53, "NO2+NO3": 13.22, "HAR_Total": 630.43, "SAR": 3.46, "RSC": 0.01, "Na%": 41.15 }, "geometry": { "type": "Point", "coordinates": [ 78.016667, 9.840278 ] } },
{ "type": "Feature", "properties": { "Well No": "83072A", "Taluk": "Usilampatti", "Village": "Valandur", "Latitude_DD": 9.949722, "Longitude_DD": 77.871944, "Total_Samples": 14, "TDS": 729.93, "EC_GEN": 1330.71, "pH_GEN": 8.29, "F": 1.32, "NO2+NO3": 4.07, "HAR_Total": 271.07, "SAR": 4.99, "RSC": 3.05, "Na%": 58.42 }, "geometry": { "type": "Point", "coordinates": [ 77.871944, 9.949722 ] } },
{ "type": "Feature", "properties": { "Well No": "83075", "Taluk": "Madurai North", "Village": "Karuppayi Urani", "Latitude_DD": 9.930556, "Longitude_DD": 78.179167, "Total_Samples": 1, "TDS": 724.0, "EC_GEN": 1190.0, "pH_GEN": 8.1, "F": 1.37, "NO2+NO3": 10.0, "HAR_Total": 140.0, "SAR": 6.95, "RSC": 1.4, "Na%": 67.42 }, "geometry": { "type": "Point", "coordinates": [ 78.179167, 9.930556 ] } },
{ "type": "Feature", "properties": { "Well No": "83078", "Taluk": "Melur", "Village": "Melapathinettangudi", "Latitude_DD": 10.0244, "Longitude_DD": 78.3492, "Total_Samples": 1, "TDS": 356.0, "EC_GEN": 640.0, "pH_GEN": 8.2, "F": 0.54, "NO2+NO3": 4.0, "HAR_Total": 175.0, "SAR": 2.11, "RSC": 0.0, "Na%": 43.27 }, "geometry": { "type": "Point", "coordinates": [ 78.3492, 10.0244 ] } },
{ "type": "Feature", "properties": { "Well No": "83080 A", "Taluk": "Vadipatti", "Village": "Nagari", "Latitude_DD": 10.019444, "Longitude_DD": 78.016389, "Total_Samples": 3, "TDS": 914.0, "EC_GEN": 1633.33, "pH_GEN": 8.63, "F": 0.72, "NO2+NO3": 2.67, "HAR_Total": 288.33, "SAR": 5.82, "RSC": 2.94, "Na%": 53.55 }, "geometry": { "type": "Point", "coordinates": [ 78.016389, 10.019444 ] } },
{ "type": "Feature", "properties": { "Well No": "83080A", "Taluk": "Vadipatti", "Village": "Nagari", "Latitude_DD": 10.019444, "Longitude_DD": 78.016389, "Total_Samples": 11, "TDS": 995.55, "EC_GEN": 1512.27, "pH_GEN": 8.04, "F": 0.94, "NO2+NO3": 5.55, "HAR_Total": 395.91, "SAR": 3.87, "RSC": 0.57, "Na%": 52.38 }, "geometry": { "type": "Point", "coordinates": [ 78.016389, 10.019444 ] } },
{ "type": "Feature", "properties": { "Well No": "83082", "Taluk": "Usilampatti", "Village": "Uthappanaickanur", "Latitude_DD": 10.033333, "Longitude_DD": 77.787778, "Total_Samples": 2, "TDS": 1206.5, "EC_GEN": 2165.0, "pH_GEN": 8.65, "F": 1.15, "NO2+NO3": 21.0, "HAR_Total": 900.0, "SAR": 1.33, "RSC": 0.0, "Na%": 18.03 }, "geometry": { "type": "Point", "coordinates": [ 77.787778, 10.033333 ] } },
{ "type": "Feature", "properties": { "Well No": "83092AY", "Taluk": "Vadipatti", "Village": "Nirathan", "Latitude_DD": 10.0525, "Longitude_DD": 77.975556, "Total_Samples": 15, "TDS": 420.13, "EC_GEN": 730.0, "pH_GEN": 7.95, "F": 1.02, "NO2+NO3": 3.64, "HAR_Total": 249.67, "SAR": 1.39, "RSC": 0.49, "Na%": 32.69 }, "geometry": { "type": "Point", "coordinates": [ 77.975556, 10.0525 ] } },
{ "type": "Feature", "properties": { "Well No": "83095", "Taluk": "Melur", "Village": "Pulipatti", "Latitude_DD": 10.084444, "Longitude_DD": 78.288889, "Total_Samples": 13, "TDS": 2374.69, "EC_GEN": 3713.85, "pH_GEN": 8.06, "F": 0.74, "NO2+NO3": 3.62, "HAR_Total": 703.46, "SAR": 6.77, "RSC": 0.13, "Na%": 56.63 }, "geometry": { "type": "Point", "coordinates": [ 78.288889, 10.084444 ] } },
{ "type": "Feature", "properties": { "Well No": "83096", "Taluk": "Melur", "Village": "Thumbalapatti", "Latitude_DD": 10.085278, "Longitude_DD": 78.359722, "Total_Samples": 13, "TDS": 727.46, "EC_GEN": 1198.46, "pH_GEN": 8.1, "F": 0.6, "NO2+NO3": 6.46, "HAR_Total": 295.77, "SAR": 3.26, "RSC": 0.65, "Na%": 48.97 }, "geometry": { "type": "Point", "coordinates": [ 78.359722, 10.085278 ] } },
{ "type": "Feature", "properties": { "Well No": "83099", "Taluk": "Madurai North", "Village": "Kadavur", "Latitude_DD": 10.075, "Longitude_DD": 78.175, "Total_Samples": 10, "TDS": 598.1, "EC_GEN": 1058.5, "pH_GEN": 7.99, "F": 0.46, "NO2+NO3": 8.71, "HAR_Total": 347.0, "SAR": 3.46, "RSC": 0.96, "Na%": 28.21 }, "geometry": { "type": "Point", "coordinates": [ 78.175, 10.075 ] } },
{ "type": "Feature", "properties": { "Well No": "Ex-21039", "Taluk": "Usilampatti", "Village": "K.Nattarpatti", "Latitude_DD": 9.968889, "Longitude_DD": 77.863611, "Total_Samples": 2, "TDS": 434.0, "EC_GEN": 855.0, "pH_GEN": 8.15, "F": 1.13, "NO2+NO3": 1.0, "HAR_Total": 337.5, "SAR": 0.98, "RSC": 0.0, "Na%": 20.74 }, "geometry": { "type": "Point", "coordinates": [ 77.863611, 9.968889 ] } },
{ "type": "Feature", "properties": { "Well No": "Ex-21040", "Taluk": "Peraiyur", "Village": "T.kallupatti", "Latitude_DD": 9.715833, "Longitude_DD": 77.859444, "Total_Samples": 5, "TDS": 318.6, "EC_GEN": 590.0, "pH_GEN": 8.04, "F": 0.93, "NO2+NO3": 4.0, "HAR_Total": 312.2, "SAR": 1.21, "RSC": 0.0, "Na%": 27.08 }, "geometry": { "type": "Point", "coordinates": [ 77.859444, 9.715833 ] } },
{ "type": "Feature", "properties": { "Well No": "Ex-21041", "Taluk": "Peraiyur", "Village": "Sedapatti", "Latitude_DD": 9.826389, "Longitude_DD": 77.8, "Total_Samples": 5, "TDS": 828.6, "EC_GEN": 1408.0, "pH_GEN": 8.12, "F": 1.07, "NO2+NO3": 22.4, "HAR_Total": 322.0, "SAR": 4.28, "RSC": 0.08, "Na%": 47.71 }, "geometry": { "type": "Point", "coordinates": [ 77.8, 9.826389 ] } },
{ "type": "Feature", "properties": { "Well No": "Ex-21071", "Taluk": "Melur", "Village": "Pottapatty", "Latitude_DD": 10.281944, "Longitude_DD": 78.370556, "Total_Samples": 4, "TDS": 684.5, "EC_GEN": 1217.5, "pH_GEN": 8.1, "F": 1.06, "NO2+NO3": 11.0, "HAR_Total": 358.75, "SAR": 2.87, "RSC": 0.1, "Na%": 44.08 }, "geometry": { "type": "Point", "coordinates": [ 78.370556, 10.281944 ] } },
{ "type": "Feature", "properties": { "Well No": "HP 21074", "Taluk": "Madurai North", "Village": "Chettikulam", "Latitude_DD": 9.995, "Longitude_DD": 78.146944, "Total_Samples": 5, "TDS": 1234.4, "EC_GEN": 2228.0, "pH_GEN": 8.4, "F": 0.62, "NO2+NO3": 25.2, "HAR_Total": 558.0, "SAR": 4.89, "RSC": 0.72, "Na%": 50.27 }, "geometry": { "type": "Point", "coordinates": [ 78.146944, 9.995 ] } },
{ "type": "Feature", "properties": { "Well No": "HP 21076", "Taluk": "Madurai North", "Village": "Vayalur", "Latitude_DD": 10.018333, "Longitude_DD": 78.053889, "Total_Samples": 5, "TDS": 369.6, "EC_GEN": 710.0, "pH_GEN": 8.04, "F": 0.78, "NO2+NO3": 2.21, "HAR_Total": 205.0, "SAR": 2.11, "RSC": 0.39, "Na%": 41.66 }, "geometry": { "type": "Point", "coordinates": [ 78.053889, 10.018333 ] } },
{ "type": "Feature", "properties": { "Well No": "HP 21077", "Taluk": "Madurai North", "Village": "Elanthgiyendal", "Latitude_DD": 9.949722, "Longitude_DD": 78.230833, "Total_Samples": 5, "TDS": 560.4, "EC_GEN": 1006.0, "pH_GEN": 8.04, "F": 0.98, "NO2+NO3": 2.6, "HAR_Total": 195.0, "SAR": 4.76, "RSC": 1.71, "Na%": 58.41 }, "geometry": { "type": "Point", "coordinates": [ 78.230833, 9.949722 ] } },
{ "type": "Feature", "properties": { "Well No": "HP 21078", "Taluk": "Madurai North", "Village": "Kalikappan", "Latitude_DD": 9.939444, "Longitude_DD": 78.193611, "Total_Samples": 5, "TDS": 586.4, "EC_GEN": 1058.0, "pH_GEN": 8.1, "F": 0.63, "NO2+NO3": 9.4, "HAR_Total": 295.0, "SAR": 2.79, "RSC": 0.22, "Na%": 44.02 }, "geometry": { "type": "Point", "coordinates": [ 78.193611, 9.939444 ] } },
{ "type": "Feature", "properties": { "Well No": "HP 21079", "Taluk": "Madurai North", "Village": "Rajakkoor", "Latitude_DD": 9.928611, "Longitude_DD": 78.238333, "Total_Samples": 5, "TDS": 866.2, "EC_GEN": 1524.0, "pH_GEN": 8.3, "F": 0.68, "NO2+NO3": 2.23, "HAR_Total": 121.0, "SAR": 13.29, "RSC": 6.08, "Na%": 79.34 }, "geometry": { "type": "Point", "coordinates": [ 78.238333, 9.928611 ] } },
{ "type": "Feature", "properties": { "Well No": "HP 21080", "Taluk": "Madurai North", "Village": "Kalimangalam", "Latitude_DD": 9.878333, "Longitude_DD": 78.238889, "Total_Samples": 5, "TDS": 2566.8, "EC_GEN": 4334.0, "pH_GEN": 8.68, "F": 1.83, "NO2+NO3": 2.0, "HAR_Total": 156.0, "SAR": 33.87, "RSC": 12.72, "Na%": 92.07 }, "geometry": { "type": "Point", "coordinates": [ 78.238889, 9.878333 ] } },
{ "type": "Feature", "properties": { "Well No": "HP 21081", "Taluk": "Madurai North", "Village": "Elamanur", "Latitude_DD": 9.900556, "Longitude_DD": 78.210833, "Total_Samples": 5, "TDS": 1758.0, "EC_GEN": 3106.0, "pH_GEN": 8.1, "F": 0.39, "NO2+NO3": 15.8, "HAR_Total": 778.0, "SAR": 6.01, "RSC": 0.0, "Na%": 51.15 }, "geometry": { "type": "Point", "coordinates": [ 78.210833, 9.900556 ] } },
{ "type": "Feature", "properties": { "Well No": "HP 21082", "Taluk": "Madurai South", "Village": "Nallur", "Latitude_DD": 9.788333, "Longitude_DD": 78.133333, "Total_Samples": 5, "TDS": 448.0, "EC_GEN": 816.0, "pH_GEN": 8.06, "F": 0.34, "NO2+NO3": 7.2, "HAR_Total": 279.0, "SAR": 1.66, "RSC": 0.08, "Na%": 31.94 }, "geometry": { "type": "Point", "coordinates": [ 78.133333, 9.788333 ] } },
{ "type": "Feature", "properties": { "Well No": "HP 21083", "Taluk": "Madurai South", "Village": "Nilaiyur", "Latitude_DD": 9.855556, "Longitude_DD": 78.059167, "Total_Samples": 5, "TDS": 1607.8, "EC_GEN": 2802.0, "pH_GEN": 8.14, "F": 0.56, "NO2+NO3": 16.6, "HAR_Total": 580.0, "SAR": 6.78, "RSC": 0.56, "Na%": 54.97 }, "geometry": { "type": "Point", "coordinates": [ 78.059167, 9.855556 ] } },
{ "type": "Feature", "properties": { "Well No": "HP 21084", "Taluk": "Madurai South", "Village": "Sakkilipatti", "Latitude_DD": 9.901389, "Longitude_DD": 78.011111, "Total_Samples": 5, "TDS": 983.6, "EC_GEN": 1740.0, "pH_GEN": 8.08, "F": 0.81, "NO2+NO3": 4.8, "HAR_Total": 367.0, "SAR": 5.62, "RSC": 0.5, "Na%": 56.16 }, "geometry": { "type": "Point", "coordinates": [ 78.011111, 9.901389 ] } },
{ "type": "Feature", "properties": { "Well No": "HP21068", "Taluk": "Vadipatti", "Village": "Alanganallur", "Latitude_DD": 10.048333, "Longitude_DD": 78.083889, "Total_Samples": 2, "TDS": 941.5, "EC_GEN": 1670.0, "pH_GEN": 8.05, "F": 0.43, "NO2+NO3": 24.0, "HAR_Total": 670.0, "SAR": 1.6, "RSC": 0.0, "Na%": 23.28 }, "geometry": { "type": "Point", "coordinates": [ 78.083889, 10.048333 ] } },
{ "type": "Feature", "properties": { "Well No": "HP21069", "Taluk": "Vadipatti", "Village": "Muduvarpatti", "Latitude_DD": 10.080278, "Longitude_DD": 78.124722, "Total_Samples": 2, "TDS": 858.0, "EC_GEN": 1480.0, "pH_GEN": 8.1, "F": 0.42, "NO2+NO3": 21.5, "HAR_Total": 432.5, "SAR": 2.76, "RSC": 0.0, "Na%": 38.0 }, "geometry": { "type": "Point", "coordinates": [ 78.124722, 10.080278 ] } },
{ "type": "Feature", "properties": { "Well No": "MWS21043", "Taluk": "Usilampatti", "Village": "Pullaneri", "Latitude_DD": 9.9325, "Longitude_DD": 77.946667, "Total_Samples": 3, "TDS": 1836.0, "EC_GEN": 3236.67, "pH_GEN": 8.17, "F": 0.4, "NO2+NO3": 6.0, "HAR_Total": 866.67, "SAR": 5.3, "RSC": 0.0, "Na%": 46.81 }, "geometry": { "type": "Point", "coordinates": [ 77.946667, 9.9325 ] } },
{ "type": "Feature", "properties": { "Well No": "MWS21044", "Taluk": "Usilampatti", "Village": "Sangampatti", "Latitude_DD": 9.948333, "Longitude_DD": 77.898333, "Total_Samples": 1, "TDS": 960.0, "EC_GEN": 1670.0, "pH_GEN": 8.0, "F": 0.8, "NO2+NO3": 6.0, "HAR_Total": 320.0, "SAR": 5.47, "RSC": 0.8, "Na%": 57.56 }, "geometry": { "type": "Point", "coordinates": [ 77.898333, 9.948333 ] } },
{ "type": "Feature", "properties": { "Well No": "MWS21046", "Taluk": "Peraiyur", "Village": "Perunkamanallur", "Latitude_DD": 9.862778, "Longitude_DD": 77.818056, "Total_Samples": 5, "TDS": 887.0, "EC_GEN": 1568.0, "pH_GEN": 8.08, "F": 1.53, "NO2+NO3": 12.6, "HAR_Total": 334.0, "SAR": 5.19, "RSC": 1.28, "Na%": 58.61 }, "geometry": { "type": "Point", "coordinates": [ 77.818056, 9.862778 ] } },
{ "type": "Feature", "properties": { "Well No": "MWS21048", "Taluk": "Peraiyur", "Village": "Pappinaickenpatti", "Latitude_DD": 9.820278, "Longitude_DD": 77.711111, "Total_Samples": 5, "TDS": 1154.8, "EC_GEN": 1970.0, "pH_GEN": 8.08, "F": 0.35, "NO2+NO3": 10.4, "HAR_Total": 354.0, "SAR": 5.72, "RSC": 0.68, "Na%": 50.24 }, "geometry": { "type": "Point", "coordinates": [ 77.711111, 9.820278 ] } },
{ "type": "Feature", "properties": { "Well No": "MWS21050", "Taluk": "Thirumangalam", "Village": "Mathipanur", "Latitude_DD": 9.795556, "Longitude_DD": 77.8375, "Total_Samples": 5, "TDS": 936.6, "EC_GEN": 1652.0, "pH_GEN": 8.16, "F": 0.41, "NO2+NO3": 12.6, "HAR_Total": 415.0, "SAR": 3.97, "RSC": 0.36, "Na%": 48.29 }, "geometry": { "type": "Point", "coordinates": [ 77.8375, 9.795556 ] } },
{ "type": "Feature", "properties": { "Well No": "MWS21052", "Taluk": "Peraiyur", "Village": "Muthunagayapuram", "Latitude_DD": 9.771389, "Longitude_DD": 77.812222, "Total_Samples": 5, "TDS": 940.6, "EC_GEN": 1644.0, "pH_GEN": 8.04, "F": 0.63, "NO2+NO3": 22.8, "HAR_Total": 327.0, "SAR": 4.61, "RSC": 0.96, "Na%": 49.97 }, "geometry": { "type": "Point", "coordinates": [ 77.812222, 9.771389 ] } },
{ "type": "Feature", "properties": { "Well No": "MWS21056", "Taluk": "Usilampatti", "Village": "Meikkilarpatti", "Latitude_DD": 9.980556, "Longitude_DD": 77.802778, "Total_Samples": 5, "TDS": 808.6, "EC_GEN": 1426.0, "pH_GEN": 8.12, "F": 0.43, "NO2+NO3": 11.6, "HAR_Total": 437.0, "SAR": 2.67, "RSC": 0.96, "Na%": 37.81 }, "geometry": { "type": "Point", "coordinates": [ 77.802778, 9.980556 ] } },
{ "type": "Feature", "properties": { "Well No": "MWS21059", "Taluk": "Vadipatti", "Village": "Kaupatti", "Latitude_DD": 10.022222, "Longitude_DD": 77.92, "Total_Samples": 5, "TDS": 928.6, "EC_GEN": 1614.0, "pH_GEN": 8.14, "F": 0.91, "NO2+NO3": 15.2, "HAR_Total": 381.0, "SAR": 4.38, "RSC": 0.22, "Na%": 50.96 }, "geometry": { "type": "Point", "coordinates": [ 77.92, 10.022222 ] } },
{ "type": "Feature", "properties": { "Well No": "MWS21061", "Taluk": "Vadipatti", "Village": "Thathampatti", "Latitude_DD": 10.022222, "Longitude_DD": 78.015556, "Total_Samples": 5, "TDS": 505.6, "EC_GEN": 910.0, "pH_GEN": 8.06, "F": 0.43, "NO2+NO3": 4.2, "HAR_Total": 254.0, "SAR": 2.34, "RSC": 0.52, "Na%": 40.02 }, "geometry": { "type": "Point", "coordinates": [ 78.015556, 10.022222 ] } },
{ "type": "Feature", "properties": { "Well No": "MWS21062", "Taluk": "Vadipatti", "Village": "PeriyaIanthaikulam", "Latitude_DD": 10.068333, "Longitude_DD": 78.051389, "Total_Samples": 5, "TDS": 436.2, "EC_GEN": 814.0, "pH_GEN": 7.98, "F": 0.85, "NO2+NO3": 4.6, "HAR_Total": 260.0, "SAR": 1.73, "RSC": 0.52, "Na%": 32.8 }, "geometry": { "type": "Point", "coordinates": [ 78.051389, 10.068333 ] } },
{ "type": "Feature", "properties": { "Well No": "MWS21063", "Taluk": "Madurai North", "Village": "Erukalnatham", "Latitude_DD": 10.014722, "Longitude_DD": 78.173889, "Total_Samples": 5, "TDS": 613.4, "EC_GEN": 1110.0, "pH_GEN": 8.1, "F": 0.62, "NO2+NO3": 9.2, "HAR_Total": 342.0, "SAR": 2.29, "RSC": 0.08, "Na%": 36.34 }, "geometry": { "type": "Point", "coordinates": [ 78.173889, 10.014722 ] } },
{ "type": "Feature", "properties": { "Well No": "MWS21065", "Taluk": "Madurai North", "Village": "Mangulam", "Latitude_DD": 10.049167, "Longitude_DD": 78.25, "Total_Samples": 5, "TDS": 381.8, "EC_GEN": 690.0, "pH_GEN": 8.12, "F": 0.63, "NO2+NO3": 2.41, "HAR_Total": 186.0, "SAR": 2.42, "RSC": 0.02, "Na%": 46.43 }, "geometry": { "type": "Point", "coordinates": [ 78.25, 10.049167 ] } },
{ "type": "Feature", "properties": { "Well No": "MWS21066", "Taluk": "Melur", "Village": "Attukulam", "Latitude_DD": 10.0025, "Longitude_DD": 78.356667, "Total_Samples": 5, "TDS": 562.4, "EC_GEN": 1000.0, "pH_GEN": 8.08, "F": 0.54, "NO2+NO3": 8.82, "HAR_Total": 268.0, "SAR": 2.75, "RSC": 0.05, "Na%": 45.5 }, "geometry": { "type": "Point", "coordinates": [ 78.356667, 10.0025 ] } }
]
}
